name,address,city,country,n_porches,n_flats,n_floors,n_occupants
"ул 8 Марта, дом 6","Восьмого Марта ул., д.6",Москва,Россия,4,113,8,7965
"ул 8 Марта, дом 2/10, к 1","Восьмого Марта ул., д.2/10, к.1",Москва,Россия,1,97,14,4233
"ул 8 Марта, дом 8, к 1","Восьмого Марта ул., д.8, к.1",Москва,Россия,3,72,7,5113
"ул 8 Марта, дом 2/10, к 2","Восьмого Марта ул., д.2/10, к.2",Москва,Россия,1,98,14,4222
"ул 8 Марта, дом 8, к 2","Восьмого Марта ул., д.8, к.2",Москва,Россия,1,98,14,4241
"ул 8 Марта, дом 2/10, к 3","Восьмого Марта ул., д.2/10, к.3",Москва,Россия,1,98,14,4228
"ул 800-летия Москвы, дом 16, к 2","Восьмисотлетия Москвы ул., д.16, к.2",Москва,Россия,1,96,12,3609
"ул 800-летия Москвы, дом 16, к 1","Восьмисотлетия Москвы ул., д.16, к.1",Москва,Россия,1,84,12,3667
"ул Авиаконструктора Микояна, дом 14, к 3","Микояна Авиаконструктора ул., д.14, к.3",Москва,Россия,4,160,14,16659
"ул Авиаконструктора Микояна, дом 14, к 2","Микояна Авиаконструктора ул., д.14, к.2",Москва,Россия,5,226,16,24398
"ул Авиаконструктора Микояна, дом 14, к 4","Микояна Авиаконструктора ул., д.14, к.4",Москва,Россия,5,259,22,27152
"ул Авиаконструктора Микояна, дом 14, к 1","Микояна Авиаконструктора ул., д.14, к.1",Москва,Россия,5,173,14,16918
"Астрадамская ул, дом 6","Астрадамская ул., д.6",Москва,Россия,6,214,9,10514
"Астрадамская ул, дом 4","Астрадамская ул., д.4",Москва,Россия,8,287,9,14304
"Астрадамская ул, дом 1, к 4","Астрадамская ул., д.1, к.4",Москва,Россия,3,55,5,2519
"Астрадамская ул, дом 7Б","Астрадамская ул., д.7Б",Москва,Россия,5,100,5,4472
"Астрадамская ул, дом 11, к 3","Астрадамская ул., д.11, к.3",Москва,Россия,3,45,5,2430
"Астрадамская ул, дом 9Б","Астрадамская ул., д.9Б",Москва,Россия,3,60,5,2500
"Астрадамская ул, дом 6, к 1","Астрадамская ул., д.6, к.1",Москва,Россия,1,111,16,5296
"Астрадамская ул, дом 3","Астрадамская ул., д.3",Москва,Россия,3,60,5,2609
"Астрадамская ул, дом 1, к 3","Астрадамская ул., д.1, к.3",Москва,Россия,3,45,5,2421
"Астрадамская ул, дом 15А","Астрадамская ул., д.15А",Москва,Россия,3,60,5,2473
"Астрадамская ул, дом 9, к 1","Астрадамская ул., д.9, к.1",Москва,Россия,1,72,9,2600
"Астрадамская ул, дом 11, к 4","Астрадамская ул., д.11, к.4",Москва,Россия,2,32,4,2099
"Астрадамская ул, дом 13","Астрадамская ул., д.13",Москва,Россия,3,45,5,2439
"Астрадамская ул, дом 5А","Астрадамская ул., д.5А",Москва,Россия,4,80,5,3385
"Астрадамская ул, дом 15","Астрадамская ул., д.15",Москва,Россия,3,52,5,2147
"Астрадамская ул, дом 9, к 2","Астрадамская ул., д.9, к.2",Москва,Россия,1,72,9,2600
"Астрадамская ул, дом 15Б","Астрадамская ул., д.15Б",Москва,Россия,4,79,5,3368
"Астрадамская ул, дом 5","Астрадамская ул., д.5",Москва,Россия,1,84,12,3632
"Астрадамская ул, дом 7А","Астрадамская ул., д.7А",Москва,Россия,3,60,5,2497
"Астрадамская ул, дом 1, к 2","Астрадамская ул., д.1, к.2",Москва,Россия,3,60,5,2571
"Астрадамская ул, дом 11, к 2","Астрадамская ул., д.11, к.2",Москва,Россия,3,44,5,2416
"Астрадамская ул, дом 11, к 1","Астрадамская ул., д.11, к.1",Москва,Россия,4,60,5,3272
"Астрадамская ул, дом 1, к 1","Астрадамская ул., д.1, к.1",Москва,Россия,4,68,5,2863
"Астрадамский проезд, дом 4А, к 2","Астрадамский пр., д.4А, к.2",Москва,Россия,1,196,30,17421
"Астрадамский проезд, дом 1","Астрадамский пр., д.1",Москва,Россия,4,80,5,3425
"Астрадамский проезд, дом 4А, к 1","Астрадамский пр., д.4А, к.1",Москва,Россия,1,192,30,17323
"Астрадамский проезд, дом 3","Астрадамский пр., д.3",Москва,Россия,4,80,5,3520
"проезд Аэропорта, дом 6","Аэропорта пр., д.6",Москва,Россия,5,100,5,3949
"проезд Аэропорта, дом 3","Аэропорта пр., д.3",Москва,Россия,3,60,5,2493
"проезд Аэропорта, дом 11","Аэропорта пр., д.11",Москва,Россия,3,58,5,3732
"проезд Аэропорта, дом 11Б","Аэропорта пр., д.11Б",Москва,Россия,3,54,5,3683
"проезд Аэропорта, дом 11А","Аэропорта пр., д.11А",Москва,Россия,3,51,5,3329
"Башиловская ул, дом 21","Башиловская ул., д.21",Москва,Россия,4,185,12,9287
"Башиловская ул, дом 7","Башиловская ул., д.7",Москва,Россия,4,79,5,3364
"Башиловская ул, дом 14, к 2","Башиловская ул., д.14, к.2",Москва,Россия,2,40,5,1555
"Башиловская ул, дом 19","Башиловская ул., д.19",Москва,Россия,5,160,9,6932
"Башиловская ул, дом 1, к 1","Башиловская ул., д.1, к.1",Москва,Россия,6,191,9,9307
"Башиловская ул, дом 28","Башиловская ул., д.28",Москва,Россия,3,30,5,2663
"Башиловская ул, дом 27","Башиловская ул., д.27",Москва,Россия,3,60,5,2508
"Башиловская ул, дом 1, к 2","Башиловская ул., д.1, к.2",Москва,Россия,1,111,14,5441
"Башиловская ул, дом 30","Башиловская ул., д.30",Москва,Россия,1,80,12,3474
"Башиловская ул, дом 17","Башиловская ул., д.17",Москва,Россия,6,67,7,5391
"Башиловская ул, дом 23, к 4","Башиловская ул., д.23, к.4",Москва,Россия,2,195,16,9987
"Башиловская ул, дом 29","Башиловская ул., д.29",Москва,Россия,1,80,12,3448
"Башиловская ул, дом 6","Башиловская ул., д.6",Москва,Россия,1,68,9,2448
"Башиловская ул, дом 23, к 2","Башиловская ул., д.23, к.2",Москва,Россия,2,194,16,10037
"Башиловская ул, дом 11","Башиловская ул., д.11",Москва,Россия,3,46,5,3088
"Башиловская ул, дом 9","Башиловская ул., д.9",Москва,Россия,3,60,5,2475
"Башиловская ул, дом 26","Башиловская ул., д.26",Москва,Россия,3,36,5,3139
"Башиловская ул, дом 14, к 1","Башиловская ул., д.14, к.1",Москва,Россия,2,38,5,1540
"Башиловская ул, дом 23, к 3","Башиловская ул., д.23, к.3",Москва,Россия,1,111,16,5335
"Башиловская ул, дом 32","Башиловская ул., д.32",Москва,Россия,3,60,5,2502
"Башиловская ул, дом 8","Башиловская ул., д.8",Москва,Россия,1,72,9,2563
"Башиловская ул, дом 23, к 1","Башиловская ул., д.23, к.1",Москва,Россия,5,140,8,6227
"Башиловская ул, дом 13","Башиловская ул., д.13",Москва,Россия,3,45,5,2450
"Башиловская ул, дом 15","Башиловская ул., д.15",Москва,Россия,4,40,5,3188
"Башиловская ул, дом 25","Башиловская ул., д.25",Москва,Россия,4,80,5,3458
"Башиловская ул, дом 3, к 1","Башиловская ул., д.3, к.1",Москва,Россия,6,192,9,9378
"Башиловская ул, дом 10","Башиловская ул., д.10",Москва,Россия,7,133,5,5451
"Башиловская ул, дом 3, к 2","Башиловская ул., д.3, к.2",Москва,Россия,1,92,12,3476
"2-я ул Бебеля, дом 38, к 3","Бебеля 2-я ул., д.38, к.3",Москва,Россия,3,44,5,2439
"1-я ул Бебеля, дом 7А","Бебеля 1-я ул., д.7А",Москва,Россия,4,80,5,3525
"1-я ул Бебеля, дом 3","Бебеля 1-я ул., д.3",Москва,Россия,4,80,5,3491
"1-я ул Бебеля, дом 7","Бебеля 1-я ул., д.7",Москва,Россия,4,80,5,3497
"2-я ул Бебеля, дом 26","Бебеля 2-я ул., д.26",Москва,Россия,8,180,5,7739
"3-я ул Бебеля, дом 34","Бебеля 3-я ул., д.34",Москва,Россия,2,80,5,3227
"2-я ул Бебеля, дом 38, к 1","Бебеля 2-я ул., д.38, к.1",Москва,Россия,3,45,5,2560
"1-я ул Бебеля, дом 3А","Бебеля 1-я ул., д.3А",Москва,Россия,4,80,5,3458
"2-я ул Бебеля, дом 38, к 2","Бебеля 2-я ул., д.38, к.2",Москва,Россия,2,30,5,1632
"Беговая ул, дом 2","Беговая ул., д.2",Москва,Россия,5,139,8,9098
"Беговая ул, дом 4","Беговая ул., д.4",Москва,Россия,5,72,7,5951
"Беговая аллея, дом 5, к 2","Беговая аллея, д.5, к.2",Москва,Россия,1,58,12,3182
"Беговая ул, дом 13","Беговая ул., д.13",Москва,Россия,8,117,8,10154
"Беговая ул, дом 20, к 2","Беговая ул., д.20, к.2",Москва,Россия,2,40,5,1578
"Беговая ул, дом 15","Беговая ул., д.15",Москва,Россия,4,84,6,5392
"Беговая ул, дом 10","Беговая ул., д.10",Москва,Россия,2,30,5,1627
"Беговая аллея, дом 9","Беговая аллея, д.9",Москва,Россия,1,72,9,3026
"Беговая аллея, дом 3","Беговая аллея, д.3",Москва,Россия,7,197,8,13136
"Беговая ул, дом 5","Беговая ул., д.5",Москва,Россия,4,122,10,8208
"Беговая ул, дом 16","Беговая ул., д.16",Москва,Россия,3,30,5,2630
"Беговая ул, дом 26","Беговая ул., д.26",Москва,Россия,2,91,13,5306
"Беговая ул, дом 6","Беговая ул., д.6",Москва,Россия,2,88,12,4962
"Беговая аллея, дом 7, к 2","Беговая аллея, д.7, к.2",Москва,Россия,1,72,9,2971
"Беговая ул, дом 7","Беговая ул., д.7",Москва,Россия,8,248,10,16687
"Беговая ул, дом 18, к 2","Беговая ул., д.18, к.2",Москва,Россия,1,103,14,5056
"Беговая ул, дом 11","Беговая ул., д.11",Москва,Россия,7,184,9,12470
"Беговая ул, дом 20, к 1","Беговая ул., д.20, к.1",Москва,Россия,3,35,5,2203
"Беговая аллея, дом 5, к 1","Беговая аллея, д.5, к.1",Москва,Россия,4,73,5,3076
"Беговая ул, дом 34","Беговая ул., д.34",Москва,Россия,3,299,13,16867
"Беговая ул, дом 6, к 4","Беговая ул., д.6, к.4",Москва,Россия,1,110,14,5293
"Беговая ул, дом 18, к 1","Беговая ул., д.18, к.1",Москва,Россия,3,58,5,2407
"Беговая ул, дом 17, к 1","Беговая ул., д.17, к.1",Москва,Россия,5,80,7,7210
"Беговая ул, дом 6, к 3","Беговая ул., д.6, к.3",Москва,Россия,1,109,14,5401
"Беговая ул, дом 6, к 2","Беговая ул., д.6, к.2",Москва,Россия,1,112,14,5377
"Беговая ул, дом 28","Беговая ул., д.28",Москва,Россия,2,137,14,8889
"Беговая аллея, дом 5, к 3","Беговая аллея, д.5, к.3",Москва,Россия,1,57,12,3123
"Беговая ул, дом 32","Беговая ул., д.32",Москва,Россия,9,121,7,7985
"Беговая ул, дом 14","Беговая ул., д.14",Москва,Россия,4,77,5,2966
"Беговая ул, дом 24","Беговая ул., д.24",Москва,Россия,8,91,6,5387
"Беговой проезд, дом 11","Беговой пр., д.11",Москва,Россия,3,34,4,2307
"Беговой проезд, дом 7","Беговой пр., д.7",Москва,Россия,2,22,4,1303
"Беговой проезд, дом 8","Беговой пр., д.8",Москва,Россия,3,34,4,1709
"Беговой проезд, дом 9","Беговой пр., д.9",Москва,Россия,1,72,12,3525
"проезд Берёзовой Рощи, дом 8","Березовой Рощи пр., д.8",Москва,Россия,1,97,23,9579
"проезд Берёзовой Рощи, дом 12","Березовой Рощи пр., д.12",Москва,Россия,7,769,26,71625
"проезд Берёзовой Рощи, дом 6","Березовой Рощи пр., д.6",Москва,Россия,1,98,23,9557
"проезд Берёзовой Рощи, дом 4","Березовой Рощи пр., д.4",Москва,Россия,1,99,23,9547
"проезд Берёзовой Рощи, дом 3, к 1","Березовой Рощи пр., д.3, к.1",Москва,Россия,8,8,2,1238
"проезд Берёзовой Рощи, дом 10","Березовой Рощи пр., д.10",Москва,Россия,5,277,24,31525
"Бескудниковский проезд, дом 2, к 2","Бескудниковский пр., д.2, к.2",Москва,Россия,5,324,17,17776
"Бескудниковский б-р, дом 30, к 2","Бескудниковский бульв., д.30, к.2",Москва,Россия,1,161,24,8635
"Бескудниковский б-р, дом 32, к 4","Бескудниковский бульв., д.32, к.4",Москва,Россия,1,71,9,2576
"Бескудниковский б-р, дом 32, к 6","Бескудниковский бульв., д.32, к.6",Москва,Россия,6,351,17,19832
"Бескудниковский б-р, дом 2, к 3","Бескудниковский бульв., д.2, к.3",Москва,Россия,2,111,14,6125
"Бескудниковский б-р, дом 36, к 2","Бескудниковский бульв., д.36, к.2",Москва,Россия,1,111,16,5318
"Бескудниковский б-р, дом 10, к 2","Бескудниковский бульв., д.10, к.2",Москва,Россия,1,72,9,2581
"Бескудниковский б-р, дом 36, к 3","Бескудниковский бульв., д.36, к.3",Москва,Россия,1,95,16,5344
"Бескудниковский проезд, дом 4, к 2","Бескудниковский пр., д.4, к.2",Москва,Россия,5,320,17,17991
"Бескудниковский б-р, дом 6, к 3","Бескудниковский бульв., д.6, к.3",Москва,Россия,7,448,17,25187
"Бескудниковский б-р, дом 24, к 1","Бескудниковский бульв., д.24, к.1",Москва,Россия,6,361,17,20381
"Бескудниковский б-р, дом 32, к 2","Бескудниковский бульв., д.32, к.2",Москва,Россия,1,72,9,2573
"Бескудниковский б-р, дом 40, к 3","Бескудниковский бульв., д.40, к.3",Москва,Россия,1,80,12,3441
"Бескудниковский б-р, дом 2, к 1","Бескудниковский бульв., д.2, к.1",Москва,Россия,5,319,17,17602
"Бескудниковский б-р, дом 36, к 4","Бескудниковский бульв., д.36, к.4",Москва,Россия,1,111,16,5310
"Бескудниковский б-р, дом 20, к 2","Бескудниковский бульв., д.20, к.2",Москва,Россия,1,72,9,2575
"Бескудниковский б-р, дом 4","Бескудниковский бульв., д.4",Москва,Россия,2,105,16,7128
"Бескудниковский проезд, дом 2, к 1","Бескудниковский пр., д.2, к.1",Москва,Россия,2,128,17,6206
"Бескудниковский б-р, дом 36, к 1","Бескудниковский бульв., д.36, к.1",Москва,Россия,1,91,16,5064
"Бескудниковский б-р, дом 20, к 1","Бескудниковский бульв., д.20, к.1",Москва,Россия,1,72,9,2586
"Бескудниковский б-р, дом 20, к 4","Бескудниковский бульв., д.20, к.4",Москва,Россия,1,72,9,2602
"Бескудниковский б-р, дом 40, к 1","Бескудниковский бульв., д.40, к.1",Москва,Россия,1,79,12,3480
"Бескудниковский б-р, дом 10, к 3","Бескудниковский бульв., д.10, к.3",Москва,Россия,1,72,9,2585
"Бескудниковский б-р, дом 28, к 3","Бескудниковский бульв., д.28, к.3",Москва,Россия,1,72,9,2614
"Бескудниковский б-р, дом 28, к 5","Бескудниковский бульв., д.28, к.5",Москва,Россия,1,161,24,8618
"Бескудниковский б-р, дом 38, к 1","Бескудниковский бульв., д.38, к.1",Москва,Россия,1,161,24,8584
"Бескудниковский б-р, дом 20, к 5","Бескудниковский бульв., д.20, к.5",Москва,Россия,1,161,24,8640
"Бескудниковский б-р, дом 30, к 3","Бескудниковский бульв., д.30, к.3",Москва,Россия,5,296,17,16746
"Бескудниковский проезд, дом 4, к 1","Бескудниковский пр., д.4, к.1",Москва,Россия,4,259,17,14438
"Бескудниковский б-р, дом 30, к 4","Бескудниковский бульв., д.30, к.4",Москва,Россия,3,294,22,14845
"Бескудниковский б-р, дом 32, к 5","Бескудниковский бульв., д.32, к.5",Москва,Россия,3,182,14,9192
"Бескудниковский б-р, дом 16, к 3","Бескудниковский бульв., д.16, к.3",Москва,Россия,1,72,9,2577
"Бескудниковский б-р, дом 28, к 4","Бескудниковский бульв., д.28, к.4",Москва,Россия,1,72,9,2574
"Бескудниковский б-р, дом 10, к 4","Бескудниковский бульв., д.10, к.4",Москва,Россия,1,72,9,2589
"Бескудниковский б-р, дом 2, к 2","Бескудниковский бульв., д.2, к.2",Москва,Россия,2,135,17,7419
"Бескудниковский б-р, дом 6, к 2","Бескудниковский бульв., д.6, к.2",Москва,Россия,6,384,17,21922
"Бескудниковский б-р, дом 22","Бескудниковский бульв., д.22",Москва,Россия,5,298,17,16850
"Бескудниковский б-р, дом 16, к 4","Бескудниковский бульв., д.16, к.4",Москва,Россия,1,72,9,2574
"Бескудниковский б-р, дом 40, к 2","Бескудниковский бульв., д.40, к.2",Москва,Россия,1,77,12,3288
"Бескудниковский б-р, дом 28, к 2","Бескудниковский бульв., д.28, к.2",Москва,Россия,1,72,9,2589
"Бескудниковский б-р, дом 16, к 2","Бескудниковский бульв., д.16, к.2",Москва,Россия,1,72,9,2573
"Бескудниковский б-р, дом 20, к 3","Бескудниковский бульв., д.20, к.3",Москва,Россия,1,72,9,2554
"Бескудниковский б-р, дом 32, к 3","Бескудниковский бульв., д.32, к.3",Москва,Россия,1,72,9,2592
"Бескудниковский б-р, дом 32, к 1","Бескудниковский бульв., д.32, к.1",Москва,Россия,1,72,9,2647
"Бескудниковский б-р, дом 10, к 1","Бескудниковский бульв., д.10, к.1",Москва,Россия,1,72,9,2606
"Бескудниковский б-р, дом 10, к 5","Бескудниковский бульв., д.10, к.5",Москва,Россия,1,160,24,8471
"Бескудниковский б-р, дом 6, к 4","Бескудниковский бульв., д.6, к.4",Москва,Россия,5,244,14,13913
"Бескудниковский б-р, дом 16, к 1","Бескудниковский бульв., д.16, к.1",Москва,Россия,1,72,9,2576
"Бескудниковский б-р, дом 28, к 1","Бескудниковский бульв., д.28, к.1",Москва,Россия,1,72,9,2578
"1-й Боткинский проезд, дом 4","Боткинский 1-й пр., д.4",Москва,Россия,6,111,7,7381
"1-й Боткинский проезд, дом 2/6","Боткинский 1-й пр., д.2/6",Москва,Россия,9,159,7,11169
"1-й Боткинский проезд, дом 6","Боткинский 1-й пр., д.6",Москва,Россия,6,170,11,11597
"Бутырская ул, дом 93","Бутырская ул., д.93",Москва,Россия,1,67,9,2422
"Бутырская ул, дом 53, к 1","Бутырская ул., д.53, к.1",Москва,Россия,3,97,8,5560
"Бутырская ул, дом 3","Бутырская ул., д.3",Москва,Россия,4,111,8,4664
"Бутырская ул, дом 5","Бутырская ул., д.5",Москва,Россия,3,96,9,4222
"Бутырская ул, дом 91","Бутырская ул., д.91",Москва,Россия,1,64,9,2310
"Бутырская ул, дом 97","Бутырская ул., д.97",Москва,Россия,6,184,9,8300
"Бутырская ул, дом 89, к 2","Бутырская ул., д.89, к.2",Москва,Россия,4,80,5,3511
"Бутырская ул, дом 89","Бутырская ул., д.89",Москва,Россия,1,64,9,2330
"Бутырская ул, дом 79","Бутырская ул., д.79",Москва,Россия,4,256,17,14054
"Бутырская ул, дом 53, к 3","Бутырская ул., д.53, к.3",Москва,Россия,2,71,8,3694
"Бутырская ул, дом 17А","Бутырская ул., д.17А",Москва,Россия,3,24,5,1028
"Бутырская ул, дом 65/68","Бутырская ул., д.65/68",Москва,Россия,5,127,8,8662
"Бутырская ул, дом 53, к 2","Бутырская ул., д.53, к.2",Москва,Россия,2,79,8,4124
"Бутырская ул, дом 95","Бутырская ул., д.95",Москва,Россия,1,64,9,2314
"Бутырская ул, дом 19","Бутырская ул., д.19",Москва,Россия,3,60,5,2431
"Бутырская ул, дом 11","Бутырская ул., д.11",Москва,Россия,3,270,16,14005
"Бутырская ул, дом 7","Бутырская ул., д.7",Москва,Россия,4,128,9,5655
"Бутырская ул, дом 15","Бутырская ул., д.15",Москва,Россия,3,270,16,13836
"Бутырская ул, дом 9, к 1","Бутырская ул., д.9, к.1",Москва,Россия,3,80,8,4747
"Бутырская ул, дом 9, к 2","Бутырская ул., д.9, к.2",Москва,Россия,3,96,9,3949
"Бутырская ул, дом 21","Бутырская ул., д.21",Москва,Россия,3,270,16,13920
"Верхняя ул, дом 6","Верхняя ул., д.6",Москва,Россия,1,75,14,3799
"Верхняя аллея, дом 1","Верхняя аллея, д.1",Москва,Россия,1,403,16,9026
"Верхняя ул, дом 1","Верхняя ул., д.1",Москва,Россия,1,69,9,2432
"Верхняя ул, дом 3, к 1","Верхняя ул., д.3, к.1",Москва,Россия,1,70,9,2955
"Верхняя ул, дом 14","Верхняя ул., д.14",Москва,Россия,1,72,9,2806
"Верхняя ул, дом 18","Верхняя ул., д.18",Москва,Россия,1,98,14,4213
"Верхняя ул, дом 3, к 2","Верхняя ул., д.3, к.2",Москва,Россия,1,70,9,2882
"ул Верхняя Масловка, дом 4","Масловка Верхн. ул., д.4",Москва,Россия,1,68,9,2469
"ул Верхняя Масловка, дом 6","Масловка Верхн. ул., д.6",Москва,Россия,4,80,5,3535
"ул Верхняя Масловка, дом 16","Масловка Верхн. ул., д.16",Москва,Россия,1,85,16,4839
"ул Верхняя Масловка, дом 8","Масловка Верхн. ул., д.8",Москва,Россия,4,80,5,3365
"ул Верхняя Масловка, дом 12","Масловка Верхн. ул., д.12",Москва,Россия,4,80,5,3380
"ул Верхняя Масловка, дом 20","Масловка Верхн. ул., д.20",Москва,Россия,3,36,7,2631
"ул Верхняя Масловка, дом 28","Масловка Верхн. ул., д.28",Москва,Россия,2,114,19,10747
"ул Верхняя Масловка, дом 2","Масловка Верхн. ул., д.2",Москва,Россия,1,68,9,2450
"ул Верхняя Масловка, дом 22","Масловка Верхн. ул., д.22",Москва,Россия,3,84,8,4936
"ул Верхняя Масловка, дом 10","Масловка Верхн. ул., д.10",Москва,Россия,3,95,8,3980
"ул Верхняя Масловка, дом 24","Масловка Верхн. ул., д.24",Москва,Россия,4,109,7,7525
"ул Верхняя Масловка, дом 28, к 2","Масловка Верхн. ул., д.28, к.2",Москва,Россия,1,60,11,5071
"ул Викторенко, дом 8А","Викторенко ул., д.8А",Москва,Россия,3,44,4,2705
"ул Викторенко, дом 12/1","Викторенко ул., д.12/1",Москва,Россия,3,64,6,2668
"ул Викторенко, дом 14","Викторенко ул., д.14",Москва,Россия,3,40,4,2709
"ул Викторенко, дом 4, к 1","Викторенко ул., д.4, к.1",Москва,Россия,6,276,19,30397
"ул Викторенко, дом 3","Викторенко ул., д.3",Москва,Россия,4,65,5,4293
"ул Викторенко, дом 12","Викторенко ул., д.12",Москва,Россия,5,75,5,4090
"ул Викторенко, дом 2/1","Викторенко ул., д.2/1",Москва,Россия,3,91,8,6361
"ул Всеволода Вишневского, дом 10","Всеволода Вишневского ул., д.10",Москва,Россия,3,84,8,5836
"ул Всеволода Вишневского, дом 9, к 2","Всеволода Вишневского ул., д.9, к.2",Москва,Россия,3,60,5,2511
"ул Всеволода Вишневского, дом 9, к 1","Всеволода Вишневского ул., д.9, к.1",Москва,Россия,3,60,5,2502
"ул Всеволода Вишневского, дом 11","Всеволода Вишневского ул., д.11",Москва,Россия,3,60,5,2473
"ул Всеволода Вишневского, дом 9","Всеволода Вишневского ул., д.9",Москва,Россия,1,32,9,1423
"ул Всеволода Вишневского, дом 4","ул Всеволода Вишневского, дом 4",Москва,Россия,NULL,NULL,NULL,NULL
"ул Всеволода Вишневского, дом 8","Всеволода Вишневского ул., д.8",Москва,Россия,3,89,8,3871
"ул Вучетича, дом 10, стр 2","ул Вучетича, дом 10, стр 2",Москва,Россия,NULL,NULL,NULL,NULL
"ул Вучетича, дом 14","ул Вучетича, дом 14",Москва,Россия,NULL,NULL,NULL,NULL
"ул Вучетича, дом 8","Вучетича ул., д.8",Москва,Россия,1,84,12,3630
"ул Вучетича, дом 18, к 1","Вучетича ул., д.18, к.1",Москва,Россия,2,4,5,3258
"ул Вучетича, дом 17, к 1","Вучетича ул., д.17, к.1",Москва,Россия,4,69,5,5011
"ул Вучетича, дом 28, к 4","Вучетича ул., д.28, к.4",Москва,Россия,4,60,5,3267
"ул Вучетича, дом 7","Вучетича ул., д.7",Москва,Россия,5,70,5,5346
"ул Вучетича, дом 24","Вучетича ул., д.24",Москва,Россия,4,60,5,3279
"ул Вучетича, дом 4","Вучетича ул., д.4",Москва,Россия,5,73,5,4649
"ул Вучетича, дом 5","Вучетича ул., д.5",Москва,Россия,1,92,12,3451
"ул Вучетича, дом 13","Вучетича ул., д.13",Москва,Россия,1,92,12,3444
"ул Вучетича, дом 11, к 2","Вучетича ул., д.11, к.2",Москва,Россия,2,32,4,2151
"ул Вучетича, дом 28, к 1","Вучетича ул., д.28, к.1",Москва,Россия,4,48,5,2615
"ул Вучетича, дом 16","Вучетича ул., д.16",Москва,Россия,1,84,12,3623
"ул Вучетича, дом 28, к 5","Вучетича ул., д.28, к.5",Москва,Россия,1,92,12,3419
"ул Вучетича, дом 15, к 1","Вучетича ул., д.15, к.1",Москва,Россия,4,66,5,4722
"ул Вучетича, дом 11, к 1","Вучетича ул., д.11, к.1",Москва,Россия,4,68,5,5018
"ул Вучетича, дом 28, к 3","Вучетича ул., д.28, к.3",Москва,Россия,2,28,5,1575
"ул Вучетича, дом 16, к 1","Вучетича ул., д.16, к.1",Москва,Россия,1,83,14,4369
"ул Вучетича, дом 26","Вучетича ул., д.26",Москва,Россия,4,60,5,3260
"ул Вучетича, дом 44","Вучетича ул., д.44",Москва,Россия,1,2,2,142
"ул Вучетича, дом 9, к 1","Вучетича ул., д.9, к.1",Москва,Россия,4,70,5,4967
"ул Вучетича, дом 19","Вучетича ул., д.19",Москва,Россия,1,92,12,3467
"ул Вучетича, дом 28, к 2","Вучетича ул., д.28, к.2",Москва,Россия,2,24,5,1313
"ул Вучетича, дом 22","Вучетича ул., д.22",Москва,Россия,4,64,5,2706
"ул Вучетича, дом 9, к 2","Вучетича ул., д.9, к.2",Москва,Россия,2,32,4,2145
"Вятская ул, дом 51","Вятская ул., д.51",Москва,Россия,4,80,5,3510
"Вятская ул, дом 16","Вятская ул., д.16",Москва,Россия,1,96,12,3603
"Вятская ул, дом 1","Вятская ул., д.1",Москва,Россия,5,160,9,6999
"Вятская ул, дом 53","Вятская ул., д.53",Москва,Россия,4,80,5,3461
"Вятская ул, дом 3","Вятская ул., д.3",Москва,Россия,4,128,9,5518
"4-й Вятский пер, дом 20","Вятский 4-й пер., д.20",Москва,Россия,4,78,5,3369
"4-й Вятский пер, дом 21","Вятский 4-й пер., д.21",Москва,Россия,1,68,9,2435
"4-й Вятский пер, дом 24, к 2","Вятский 4-й пер., д.24, к.2",Москва,Россия,3,60,5,2405
"4-й Вятский пер, дом 23","Вятский 4-й пер., д.23",Москва,Россия,4,144,9,6178
"4-й Вятский пер, дом 18, к 1","4-й Вятский пер, дом 18, к 1",Москва,Россия,NULL,NULL,NULL,NULL
"4-й Вятский пер, дом 24, к 3","Вятский 4-й пер., д.24, к.3",Москва,Россия,3,30,5,2657
"4-й Вятский пер, дом 18, к 3","Вятский 4-й пер., д.18, к.3",Москва,Россия,2,111,16,9475
"4-й Вятский пер, дом 33/47","Вятский 4-й пер., д.33/47",Москва,Россия,1,64,8,2183
"4-й Вятский пер, дом 16, к 1","Вятский 4-й пер., д.16, к.1",Москва,Россия,2,67,10,5881
"4-й Вятский пер, дом 16, к 2","Вятский 4-й пер., д.16, к.2",Москва,Россия,3,129,14,10090
"4-й Вятский пер, дом 24, к 1","Вятский 4-й пер., д.24, к.1",Москва,Россия,3,39,5,2633
"4-й Вятский пер, дом 22Б","Вятский 4-й пер., д.22Б",Москва,Россия,1,72,9,3177
"4-й Вятский пер, дом 35","Вятский 4-й пер., д.35",Москва,Россия,1,119,16,5039
"4-й Вятский пер, дом 27","Вятский 4-й пер., д.27",Москва,Россия,4,144,9,6167
"4-й Вятский пер, дом 18, к 2","Вятский 4-й пер., д.18, к.2",Москва,Россия,6,213,14,16858
"4-й Вятский пер, дом 22","Вятский 4-й пер., д.22",Москва,Россия,4,60,5,2524
"4-й Вятский пер, дом 18, к 4","Вятский 4-й пер., д.18, к.4",Москва,Россия,2,80,12,6787
"4-й Вятский пер, дом 37","Вятский 4-й пер., д.37",Москва,Россия,1,68,9,2445
"4-й Вятский пер, дом 14","Вятский 4-й пер., д.14",Москва,Россия,1,107,16,5177
"ул Гризодубовой, дом 4, к 1","Гризодубовой ул., д.4, к.1",Москва,Россия,6,187,12,22337
"ул Гризодубовой, дом 4, к 3","Гризодубовой ул., д.4, к.3",Москва,Россия,4,168,18,20208
"ул Гризодубовой, дом 4, к 4","Гризодубовой ул., д.4, к.4",Москва,Россия,7,272,18,32182
"ул Гризодубовой, дом 1, к 2","Гризодубовой ул., д.1, к.2",Москва,Россия,1,64,17,4667
"ул Гризодубовой, дом 1, к 5","Гризодубовой ул., д.1, к.5",Москва,Россия,3,192,17,10924
"ул Гризодубовой, дом 1, к 1","Гризодубовой ул., д.1, к.1",Москва,Россия,2,125,17,8332
"ул Гризодубовой, дом 2","Гризодубовой ул., д.2",Москва,Россия,5,294,23,31056
"ул Гризодубовой, дом 1, к 4","Гризодубовой ул., д.1, к.4",Москва,Россия,1,64,17,4643
"ул Гризодубовой, дом 1, к 3","Гризодубовой ул., д.1, к.3",Москва,Россия,1,64,17,4649
"Дмитровский проезд, дом 16, к 2","Дмитровский пр., д.16, к.2",Москва,Россия,1,59,12,2835
"Дмитровский проезд, дом 20, к 1","Дмитровский пр., д.20, к.1",Москва,Россия,1,161,25,9148
"Дмитровский проезд, дом 16","Дмитровский пр., д.16",Москва,Россия,6,286,12,14569
"Дмитровский проезд, дом 4","Дмитровский пр., д.4",Москва,Россия,4,40,8,2696
"Дмитровский проезд, дом 8","Дмитровский пр., д.8",Москва,Россия,6,167,8,10352
"Дмитровский проезд, дом 6, к 1","Дмитровский пр., д.6, к.1",Москва,Россия,4,126,9,5846
"Дмитровский проезд, дом 4, к 3","Дмитровский пр., д.4, к.3",Москва,Россия,3,26,6,2194
"Дмитровский проезд, дом 4, к 4","Дмитровский пр., д.4, к.4",Москва,Россия,1,10,6,898
"Дмитровский проезд, дом 18","Дмитровский пр., д.18",Москва,Россия,6,286,12,14481
"Дмитровский проезд, дом 6, к 2","Дмитровский пр., д.6, к.2",Москва,Россия,4,126,9,5879
"Дмитровский проезд, дом 20, к 2","Дмитровский пр., д.20, к.2",Москва,Россия,1,161,25,9217
"Дмитровский проезд, дом 14","Дмитровский пр., д.14",Москва,Россия,6,160,9,7581
"Дмитровское ш, дом 42","Дмитровское шоссе, д.42",Москва,Россия,6,162,8,11498
"Дмитровское ш, дом 38, к 1","Дмитровское шоссе, д.38, к.1",Москва,Россия,3,46,5,3081
"Дмитровское ш, дом 33, к 7","Дмитровское шоссе, д.33, к.7",Москва,Россия,2,135,17,7349
"Дмитровское ш, дом 64, к 1","Дмитровское шоссе, д.64, к.1",Москва,Россия,1,80,12,3465
"Дмитровское ш, дом 36, к 2","Дмитровское шоссе, д.36, к.2",Москва,Россия,3,60,5,2506
"Дмитровское ш, дом 27, к 4","Дмитровское шоссе, д.27, к.4",Москва,Россия,1,69,14,2473
"Дмитровское ш, дом 48, к 2","Дмитровское шоссе, д.48, к.2",Москва,Россия,3,60,5,2487
"Дмитровское ш, дом 55, к 2","Дмитровское шоссе, д.55, к.2",Москва,Россия,4,80,5,3686
"Дмитровское ш, дом 55, к 1","Дмитровское шоссе, д.55, к.1",Москва,Россия,4,80,5,3721
"Дмитровское ш, дом 96, к 1","Дмитровское шоссе, д.96, к.1",Москва,Россия,5,320,17,15478
"Дмитровское ш, дом 33, к 5","Дмитровское шоссе, д.33, к.5",Москва,Россия,1,108,16,5117
"Дмитровское ш, дом 17, к 1","Дмитровское шоссе, д.17, к.1",Москва,Россия,4,80,5,3408
"Дмитровское ш, дом 21, к 2","Дмитровское шоссе, д.21, к.2",Москва,Россия,1,64,9,2250
"Дмитровское ш, дом 52, к 1","Дмитровское шоссе, д.52, к.1",Москва,Россия,7,108,7,7435
"Дмитровское ш, дом 27, к 3","Дмитровское шоссе, д.27, к.3",Москва,Россия,3,143,12,7231
"Дмитровское ш, дом 33, к 4","Дмитровское шоссе, д.33, к.4",Москва,Россия,1,107,16,5130
"Дмитровское ш, дом 13, к 2","Дмитровское шоссе, д.13, к.2",Москва,Россия,4,64,5,2816
"Дмитровское ш, дом 7, к 2","Дмитровское шоссе, д.7, к.2",Москва,Россия,6,203,8,14352
"Дмитровское ш, дом 13А","Дмитровское шоссе, д.13А",Москва,Россия,3,555,30,42495
"Дмитровское ш, дом 13, к 3","Дмитровское шоссе, д.13, к.3",Москва,Россия,4,64,5,2816
"Дмитровское ш, дом 54, к 2","Дмитровское шоссе, д.54, к.2",Москва,Россия,4,80,5,3513
"Дмитровское ш, дом 44, к 2","Дмитровское шоссе, д.44, к.2",Москва,Россия,2,178,9,5696
"Дмитровское ш, дом 33, к 2","Дмитровское шоссе, д.33, к.2",Москва,Россия,3,141,12,7183
"Дмитровское ш, дом 21, к 1","Дмитровское шоссе, д.21, к.1",Москва,Россия,4,78,5,3324
"Дмитровское ш, дом 64, к 3","Дмитровское шоссе, д.64, к.3",Москва,Россия,1,80,12,3483
"Дмитровское ш, дом 15, к 1","Дмитровское шоссе, д.15, к.1",Москва,Россия,1,64,9,2229
"Дмитровское ш, дом 45, к 3","Дмитровское шоссе, д.45, к.3",Москва,Россия,1,98,14,4213
"Дмитровское ш, дом 1, к 1","Дмитровское шоссе, д.1, к.1",Москва,Россия,10,154,5,6828
"Дмитровское ш, дом 30, к 1","Дмитровское шоссе, д.30, к.1",Москва,Россия,4,64,5,2720
"Дмитровское ш, дом 63, к 1","Дмитровское шоссе, д.63, к.1",Москва,Россия,4,64,5,2725
"Дмитровское ш, дом 19, к 2","Дмитровское шоссе, д.19, к.2",Москва,Россия,1,64,9,2245
"Дмитровское ш, дом 3, к 2","Дмитровское шоссе, д.3, к.2",Москва,Россия,3,43,5,2919
"Дмитровское ш, дом 37, к 1","Дмитровское шоссе, д.37, к.1",Москва,Россия,10,346,9,16510
"Дмитровское ш, дом 32, к 1","Дмитровское шоссе, д.32, к.1",Москва,Россия,4,80,5,3404
"Дмитровское ш, дом 46, к 1","Дмитровское шоссе, д.46, к.1",Москва,Россия,6,167,8,12137
"Дмитровское ш, дом 47, к 2","Дмитровское шоссе, д.47, к.2",Москва,Россия,1,248,15,9020
"Дмитровское ш, дом 25, к 1","Дмитровское шоссе, д.25, к.1",Москва,Россия,6,177,9,14349
"Дмитровское ш, дом 94, к 1","Дмитровское шоссе, д.94, к.1",Москва,Россия,1,161,24,8556
"Дмитровское ш, дом 23, к 1","Дмитровское шоссе, д.23, к.1",Москва,Россия,3,60,5,2549
"Дмитровское ш, дом 29, к 1","Дмитровское шоссе, д.29, к.1",Москва,Россия,10,346,9,16710
"Дмитровское ш, дом 34, к 1","Дмитровское шоссе, д.34, к.1",Москва,Россия,4,115,8,8018
"Дмитровское ш, дом 41, к 2","Дмитровское шоссе, д.41, к.2",Москва,Россия,3,143,12,7217
"Дмитровское ш, дом 50, к 1","Дмитровское шоссе, д.50, к.1",Москва,Россия,6,164,8,12057
"Дмитровское ш, дом 13, к 4","Дмитровское шоссе, д.13, к.4",Москва,Россия,4,80,5,3574
"Дмитровское ш, дом 13, к 5","Дмитровское шоссе, д.13, к.5",Москва,Россия,4,80,5,3530
"Дмитровское ш, дом 27, к 2","Дмитровское шоссе, д.27, к.2",Москва,Россия,6,213,9,10449
"Дмитровское ш, дом 31","Дмитровское шоссе, д.31",Москва,Россия,1,96,12,3607
"Дмитровское ш, дом 96, к 3","Дмитровское шоссе, д.96, к.3",Москва,Россия,1,155,24,8511
"Дмитровское ш, дом 51, к 1","Дмитровское шоссе, д.51, к.1",Москва,Россия,6,165,8,11941
"Дмитровское ш, дом 44, к 3","Дмитровское шоссе, д.44, к.3",Москва,Россия,3,49,5,3601
"Дмитровское ш, дом 59, к 1","Дмитровское шоссе, д.59, к.1",Москва,Россия,6,170,8,12161
"Дмитровское ш, дом 33, к 1","Дмитровское шоссе, д.33, к.1",Москва,Россия,8,278,9,13770
"Дмитровское ш, дом 19, к 1","Дмитровское шоссе, д.19, к.1",Москва,Россия,4,76,5,3243
"Дмитровское ш, дом 3, к 1","Дмитровское шоссе, д.3, к.1",Москва,Россия,3,148,10,9533
"Дмитровское ш, дом 64, к 4","Дмитровское шоссе, д.64, к.4",Москва,Россия,2,168,22,9650
"Дмитровское ш, дом 65, к 1","Дмитровское шоссе, д.65, к.1",Москва,Россия,1,68,9,2437
"Дмитровское ш, дом 96, к 4","Дмитровское шоссе, д.96, к.4",Москва,Россия,4,208,14,10510
"Дмитровское ш, дом 7, к 1","Дмитровское шоссе, д.7, к.1",Москва,Россия,5,49,6,3756
"Дмитровское ш, дом 57, к 1","Дмитровское шоссе, д.57, к.1",Москва,Россия,3,50,5,3437
"Дмитровское ш, дом 44, к 1","Дмитровское шоссе, д.44, к.1",Москва,Россия,3,50,5,3505
"Дмитровское ш, дом 36, к 1","Дмитровское шоссе, д.36, к.1",Москва,Россия,3,50,5,3386
"Дмитровское ш, дом 45, к 1","Дмитровское шоссе, д.45, к.1",Москва,Россия,4,144,9,7226
"Дмитровское ш, дом 51, к 2","Дмитровское шоссе, д.51, к.2",Москва,Россия,3,60,5,2557
"Дмитровское ш, дом 33, к 6","Дмитровское шоссе, д.33, к.6",Москва,Россия,2,132,17,7416
"Дмитровское ш, дом 28","Дмитровское шоссе, д.28",Москва,Россия,4,80,5,3455
"Дмитровское ш, дом 43, к 1","Дмитровское шоссе, д.43, к.1",Москва,Россия,10,345,9,16621
"Дмитровское ш, дом 17, к 2","Дмитровское шоссе, д.17, к.2",Москва,Россия,1,64,9,2248
"Дмитровское ш, дом 96, к 5","Дмитровское шоссе, д.96, к.5",Москва,Россия,4,211,14,10304
"Дмитровское ш, дом 45, к 2","Дмитровское шоссе, д.45, к.2",Москва,Россия,1,96,14,4116
"Дмитровское ш, дом 39, к 1","Дмитровское шоссе, д.39, к.1",Москва,Россия,8,285,9,14203
"Дмитровское ш, дом 35, к 1","Дмитровское шоссе, д.35, к.1",Москва,Россия,6,215,9,10763
"Дмитровское ш, дом 52, к 2","Дмитровское шоссе, д.52, к.2",Москва,Россия,4,80,5,3372
"Дмитровское ш, дом 57, к 2","Дмитровское шоссе, д.57, к.2",Москва,Россия,1,84,12,3639
"Дмитровское ш, дом 48, к 1","Дмитровское шоссе, д.48, к.1",Москва,Россия,3,50,5,3436
"Дмитровское ш, дом 15, к 2","Дмитровское шоссе, д.15, к.2",Москва,Россия,4,80,5,3531
"Дмитровское ш, дом 41, к 1","Дмитровское шоссе, д.41, к.1",Москва,Россия,6,215,9,10602
"Дмитровское ш, дом 32, к 3","Дмитровское шоссе, д.32, к.3",Москва,Россия,3,36,4,1924
"Дмитровское ш, дом 32, к 2","Дмитровское шоссе, д.32, к.2",Москва,Россия,3,60,5,2535
"Дмитровское ш, дом 47, стр 3","Дмитровское ш, дом 47, стр 3",Москва,Россия,NULL,NULL,NULL,NULL
"Дмитровское ш, дом 61, к 1","Дмитровское шоссе, д.61, к.1",Москва,Россия,4,76,5,3232
"Дмитровское ш, дом 39, к 2","Дмитровское шоссе, д.39, к.2",Москва,Россия,1,96,12,3600
"Дмитровское ш, дом 40, к 1","Дмитровское шоссе, д.40, к.1",Москва,Россия,3,41,5,2953
"Дмитровское ш, дом 5, к 1","Дмитровское шоссе, д.5, к.1",Москва,Россия,14,126,7,9837
"Дмитровское ш, дом 65, к 2","Дмитровское шоссе, д.65, к.2",Москва,Россия,5,73,5,3993
"Дмитровское ш, дом 64, к 2","Дмитровское шоссе, д.64, к.2",Москва,Россия,1,80,12,3470
"Дмитровское ш, дом 64, к 5","Дмитровское шоссе, д.64, к.5",Москва,Россия,3,110,12,5723
"Дмитровское ш, дом 63, к 2","Дмитровское шоссе, д.63, к.2",Москва,Россия,1,98,14,4269
"ул Дубки, дом 2","Дубки ул., д.2",Москва,Россия,1,126,15,6863
"ул Дубки, дом 4А","Дубки ул., д.4А",Москва,Россия,1,126,15,6905
"ул Дубки, дом 13","Дубки ул., д.13",Москва,Россия,1,81,12,3484
"ул Дубки, дом 3","Дубки ул., д.3",Москва,Россия,4,80,5,3424
"ул Дубки, дом 12","Дубки ул., д.12",Москва,Россия,1,96,12,3620
"ул Дубки, дом 1","Дубки ул., д.1",Москва,Россия,3,60,5,2580
"ул Дубки, дом 4","Дубки ул., д.4",Москва,Россия,1,125,15,6859
"ул Дубки, дом 11","Дубки ул., д.11",Москва,Россия,5,180,9,7797
"ул Дубки, дом 2А","Дубки ул., д.2А",Москва,Россия,1,130,15,7107
"ул Дубки, дом 7","Дубки ул., д.7",Москва,Россия,1,80,12,3450
"Дубнинская ул, дом 39","Дубнинская ул., д.39",Москва,Россия,5,286,17,16248
"Дубнинская ул, дом 53, к 1","Дубнинская ул., д.53, к.1",Москва,Россия,5,296,17,13635
"Дубнинская ул, дом 53, к 2","Дубнинская ул., д.53, к.2",Москва,Россия,4,256,17,14390
"Дубнинская ул, дом 53, к 3","Дубнинская ул., д.53, к.3",Москва,Россия,6,387,17,21779
"Дубнинская ул, дом 71, к 1","Дубнинская ул., д.71, к.1",Москва,Россия,2,206,16,10613
"Дубнинская ул, дом 27, к 2","Дубнинская ул., д.27, к.2",Москва,Россия,3,252,22,16146
"Дубнинская ул, дом 45, к 1","Дубнинская ул., д.45, к.1",Москва,Россия,5,320,17,17968
"Дубнинская ул, дом 5, к 1","Дубнинская ул., д.5, к.1",Москва,Россия,2,95,12,5197
"Дубнинская ул, дом 37, к 2","Дубнинская ул., д.37, к.2",Москва,Россия,3,294,22,14946
"Дубнинская ул, дом 27, к 1","Дубнинская ул., д.27, к.1",Москва,Россия,5,319,17,18306
"Дубнинская ул, дом 29, к 1","Дубнинская ул., д.29, к.1",Москва,Россия,7,399,17,22686
"Дубнинская ул, дом 47, к 1","Дубнинская ул., д.47, к.1",Москва,Россия,4,210,14,11993
"Дубнинская ул, дом 3","Дубнинская ул., д.3",Москва,Россия,5,270,16,17633
"Дубнинская ул, дом 37, к 1","Дубнинская ул., д.37, к.1",Москва,Россия,5,301,17,17007
"Дубнинская ул, дом 69, к 3","Дубнинская ул., д.69, к.3",Москва,Россия,1,111,16,5284
"Дубнинская ул, дом 5, к 2","Дубнинская ул., д.5, к.2",Москва,Россия,3,136,12,7854
"Дубнинская ул, дом 61","Дубнинская ул., д.61",Москва,Россия,4,215,9,10648
"Дубнинская ул, дом 71, к 2","Дубнинская ул, дом 71, к 2",Москва,Россия,NULL,NULL,NULL,NULL
"Дубнинская ул, дом 43","Дубнинская ул., д.43",Москва,Россия,3,158,14,10909
"Дубнинская ул, дом 1","Дубнинская ул., д.1",Москва,Россия,1,80,12,3459
"Дубнинская ул, дом 35","Дубнинская ул., д.35",Москва,Россия,3,165,14,10495
"Дубнинская ул, дом 69, к 2","Дубнинская ул., д.69, к.2",Москва,Россия,6,215,9,10779
"Дубнинская ул, дом 69, к 1","Дубнинская ул., д.69, к.1",Москва,Россия,1,108,16,5182
"ул Зорге, дом 10, к 2","Зорге ул., д.10, к.2",Москва,Россия,2,100,10,6032
"ул Зорге, дом 14, к 3","Зорге ул., д.14, к.3",Москва,Россия,2,66,8,4542
"ул Зорге, дом 20","Зорге ул., д.20",Москва,Россия,3,48,4,3167
"ул Зорге, дом 6, к 2","Зорге ул., д.6, к.2",Москва,Россия,2,100,10,6018
"ул Зорге, дом 10, к 1","Зорге ул., д.10, к.1",Москва,Россия,1,72,6,5045
"ул Зорге, дом 2","Зорге ул., д.2/92",Москва,Россия,2,59,8,3949
"ул Зорге, дом 14, к 1","Зорге ул., д.14, к.1",Москва,Россия,2,54,8,3936
"ул Зорге, дом 14, к 2","Зорге ул., д.14, к.2",Москва,Россия,3,86,8,6328
"ул Зорге, дом 6, к 1","Зорге ул., д.6, к.1",Москва,Россия,1,72,6,5012
"ул Зорге, дом 18, к 3","Зорге ул., д.18, к.3",Москва,Россия,2,64,8,4199
"ул Зорге, дом 18, к 1","Зорге ул., д.18, к.1",Москва,Россия,2,56,8,3952
"ул Зорге, дом 16","Зорге ул., д.16",Москва,Россия,3,96,8,6506
"ул Зорге, дом 6, к 3","Зорге ул., д.6, к.3",Москва,Россия,1,68,6,4803
"ул Зорге, дом 10, к 3","Зорге ул., д.10, к.3",Москва,Россия,1,66,6,4636
"ул Зорге, дом 18, к 2","Зорге ул., д.18, к.2",Москва,Россия,3,88,8,6393
"Ивановская ул, дом 26","Ивановская ул., д.26",Москва,Россия,1,84,12,3640
"Ивановская ул, дом 34","Ивановская ул., д.34",Москва,Россия,1,138,14,6482
"Ивановская ул, дом 32","Ивановская ул., д.32",Москва,Россия,2,40,5,1571
"Ивановская ул, дом 32","Ивановская ул., д.32",Москва,Россия,2,40,5,1571
"Ивановская ул, дом 14, к 2","Ивановская ул., д.14, к.2",Москва,Россия,4,80,5,3471
"Ивановская ул, дом 18","Ивановская ул., д.18",Москва,Россия,4,59,5,3298
"Ивановская ул, дом 22","Ивановская ул., д.22",Москва,Россия,4,80,5,3521
"Ивановская ул, дом 16","Ивановская ул., д.16",Москва,Россия,1,84,12,3623
"Ивановская ул, дом 20","Ивановская ул., д.20",Москва,Россия,1,84,12,3643
"Ивановская ул, дом 14, к 1","Ивановская ул., д.14, к.1",Москва,Россия,4,79,5,3469
"2-я Квесисская ул, дом 24, к 1","Квесисская 2-я ул., д.24, к.1",Москва,Россия,1,84,12,3639
"2-я Квесисская ул, дом 21","Квесисская 2-я ул., д.21",Москва,Россия,1,40,5,1664
"2-я Квесисская ул, дом 6","2-я Квесисская ул, дом 6",Москва,Россия,NULL,NULL,NULL,NULL
"2-я Квесисская ул, дом 25","Квесисская 2-я ул., д.25",Москва,Россия,1,109,16,5166
"2-я Квесисская ул, дом 11","Квесисская 2-я ул., д.11",Москва,Россия,4,80,5,3472
"2-я Квесисская ул, дом 23","Квесисская 2-я ул., д.23",Москва,Россия,5,224,12,12119
"2-я Квесисская ул, дом 20, к 1","Квесисская 2-я ул., д.20, к.1",Москва,Россия,2,132,23,12017
"2-я Квесисская ул, дом 15","Квесисская 2-я ул., д.15",Москва,Россия,4,80,5,3437
"2-я Квесисская ул, дом 18","Квесисская 2-я ул., д.18",Москва,Россия,4,80,5,3420
"2-я Квесисская ул, дом 9","Квесисская 2-я ул., д.9",Москва,Россия,4,80,5,3405
"2-я Квесисская ул, дом 24, к 2","Квесисская 2-я ул., д.24, к.2",Москва,Россия,1,64,12,3410
"2-я Квесисская ул, дом 13","Квесисская 2-я ул., д.13",Москва,Россия,4,80,5,3400
"2-я Квесисская ул, дом 22","Квесисская 2-я ул., д.22",Москва,Россия,1,84,12,3644
"2-я Квесисская ул, дом 24, к 3","Квесисская 2-я ул., д.24, к.3",Москва,Россия,1,47,10,5368
"ул Костякова, дом 13","Костякова ул., д.13",Москва,Россия,4,80,5,3525
"ул Костякова, дом 17, к 2","Костякова ул., д.17, к.2",Москва,Россия,5,164,9,7005
"ул Костякова, дом 9","Костякова ул., д.9",Москва,Россия,5,142,8,6250
"ул Костякова, дом 10","Костякова ул., д.10",Москва,Россия,14,275,7,19509
"ул Костякова, дом 8","Костякова ул., д.8",Москва,Россия,9,255,8,17694
"ул Костякова, дом 17, к 1","Костякова ул., д.17, к.1",Москва,Россия,4,137,9,5783
"ул Костякова, дом 7/7","Костякова ул., д.7/7",Москва,Россия,6,172,8,12138
"ул Костякова, дом 6/5","Костякова ул., д.6/5",Москва,Россия,7,195,8,13837
"ул Костякова, дом 2/6","Костякова ул., д.2/6",Москва,Россия,6,189,9,8697
"ул Костякова, дом 11, к 1","Костякова ул., д.11, к.1",Москва,Россия,1,71,12,3405
"ул Костякова, дом 5","Костякова ул., д.5",Москва,Россия,3,45,5,2461
"ул Костякова, дом 11","Костякова ул., д.11",Москва,Россия,4,80,5,3540
"ул Костякова, дом 15","Костякова ул., д.15",Москва,Россия,5,160,9,6979
"Красностуденческий проезд, дом 13","Красностуденческий пр., д.13",Москва,Россия,1,96,12,3693
"Красностуденческий проезд, дом 5","Красностуденческий пр., д.5",Москва,Россия,1,96,12,3631
"Красностуденческий проезд, дом 1","Красностуденческий пр., д.1",Москва,Россия,4,125,8,8337
"Красностуденческий проезд, дом 4","Красностуденческий пр., д.4",Москва,Россия,4,222,14,12618
"Красностуденческий проезд, дом 7","Красностуденческий пр., д.7",Москва,Россия,1,107,16,9195
"Красностуденческий проезд, дом 2","Красностуденческий пр., д.2",Москва,Россия,6,283,12,16333
"Красностуденческий проезд, дом 6","Красностуденческий пр., д.6",Москва,Россия,4,259,18,29390
"Красностуденческий проезд, дом 21","Красностуденческий пр., д.21",Москва,Россия,1,84,12,3676
"Красностуденческий проезд, дом 11","Красностуденческий пр., д.11",Москва,Россия,3,30,5,2182
"Красностуденческий проезд, дом 15","Красностуденческий пр., д.15",Москва,Россия,3,30,5,2214
"Красностуденческий проезд, дом 9","Красностуденческий пр., д.9",Москва,Россия,3,24,4,1815
"Красностуденческий проезд, дом 3","Красностуденческий пр., д.3",Москва,Россия,1,96,12,3662
"Красностуденческий проезд, дом 17","Красностуденческий пр., д.17",Москва,Россия,1,96,12,3672
"Красностуденческий проезд, дом 4, к 2","Красностуденческий пр., д.4, к.2",Москва,Россия,3,259,22,16418
"Красностуденческий проезд, дом 19","Красностуденческий пр., д.19",Москва,Россия,1,77,12,3303
"Красностуденческий проезд, дом 23","Красностуденческий пр., д.23",Москва,Россия,1,84,12,3632
"ул Куусинена, дом 11, к 2","Куусинена ул., д.11, к.2",Москва,Россия,2,86,10,5119
"ул Куусинена, дом 9, к 3","Куусинена ул., д.9, к.3",Москва,Россия,1,70,6,4883
"ул Куусинена, дом 17, к 3","Куусинена ул., д.17, к.3",Москва,Россия,2,62,8,4185
"ул Куусинена, дом 4А, к 2","Куусинена ул., д.4А, к.2",Москва,Россия,5,144,8,6020
"ул Куусинена, дом 19, к 2","Куусинена ул., д.19, к.2",Москва,Россия,3,99,9,7291
"ул Куусинена, дом 6, к 12","Куусинена ул., д.6, к.12",Москва,Россия,1,84,12,3614
"ул Куусинена, дом 4А, к 1","Куусинена ул., д.4А, к.1",Москва,Россия,5,147,8,6274
"ул Куусинена, дом 17, к 1","Куусинена ул., д.17, к.1",Москва,Россия,2,70,8,4695
"ул Куусинена, дом 6, к 2","Куусинена ул., д.6, к.2",Москва,Россия,3,66,8,4962
"ул Куусинена, дом 21А","Куусинена ул., д.21А",Москва,Россия,3,115,11,15474
"ул Куусинена, дом 7, к 3","Куусинена ул., д.7, к.3",Москва,Россия,1,71,6,4970
"ул Куусинена, дом 6, к 10","Куусинена ул., д.6, к.10",Москва,Россия,1,96,12,3609
"ул Куусинена, дом 2, к 2","Куусинена ул., д.2, к.2",Москва,Россия,3,60,5,3861
"ул Куусинена, дом 6А, к 1","Куусинена ул., д.6А, к.1",Москва,Россия,1,84,12,3621
"ул Куусинена, дом 6, к 4","Куусинена ул., д.6, к.4",Москва,Россия,4,80,5,3366
"ул Куусинена, дом 15, к 3","Куусинена ул., д.15, к.3",Москва,Россия,1,35,7,2302
"ул Куусинена, дом 9, к 2","Куусинена ул., д.9, к.2",Москва,Россия,2,88,10,5397
"ул Куусинена, дом 7, к 1","Куусинена ул., д.7, к.1",Москва,Россия,1,66,6,4613
"ул Куусинена, дом 6, к 9","Куусинена ул., д.6, к.9",Москва,Россия,1,84,12,3617
"ул Куусинена, дом 6, к 11","Куусинена ул., д.6, к.11",Москва,Россия,1,84,12,3615
"ул Куусинена, дом 6, к 1","Куусинена ул., д.6, к.1",Москва,Россия,3,75,8,5117
"ул Куусинена, дом 2, к 1","Куусинена ул., д.2, к.1",Москва,Россия,3,48,5,3154
"ул Куусинена, дом 11, к 1","Куусинена ул., д.11, к.1",Москва,Россия,1,68,6,4680
"ул Куусинена, дом 17, к 2","Куусинена ул., д.17, к.2",Москва,Россия,3,106,12,7522
"ул Куусинена, дом 4, к 1","Куусинена ул., д.4, к.1",Москва,Россия,3,50,5,3294
"ул Куусинена, дом 4, к 2","Куусинена ул., д.4, к.2",Москва,Россия,3,52,5,3422
"ул Куусинена, дом 4А, к 4","Куусинена ул., д.4А, к.4",Москва,Россия,4,140,9,6952
"ул Куусинена, дом 6, к 8","Куусинена ул., д.6, к.8",Москва,Россия,4,151,9,8063
"ул Куусинена, дом 15, к 2","Куусинена ул., д.15, к.2",Москва,Россия,3,102,9,7393
"ул Куусинена, дом 4А, к 5","Куусинена ул., д.4А, к.5",Москва,Россия,4,143,9,7135
"ул Куусинена, дом 19, к 1","Куусинена ул., д.19, к.1",Москва,Россия,1,35,7,2203
"ул Куусинена, дом 6, к 6","Куусинена ул., д.6, к.6",Москва,Россия,3,58,5,2466
"ул Куусинена, дом 4А, к 3","Куусинена ул., д.4А, к.3",Москва,Россия,4,143,9,7137
"ул Куусинена, дом 11, к 3","Куусинена ул., д.11, к.3",Москва,Россия,1,69,6,4700
"ул Куусинена, дом 4, к 3","Куусинена ул., д.4, к.3",Москва,Россия,3,42,5,2755
"ул Куусинена, дом 19, к 3","Куусинена ул., д.19, к.3",Москва,Россия,2,56,7,3886
"ул Куусинена, дом 6, к 7","Куусинена ул., д.6, к.7",Москва,Россия,4,80,5,3400
"ул Куусинена, дом 7, к 2","Куусинена ул., д.7, к.2",Москва,Россия,2,88,10,5421
"ул Куусинена, дом 6, к 3","Куусинена ул., д.6, к.3",Москва,Россия,3,66,8,4512
"ул Куусинена, дом 15, к 1","Куусинена ул., д.15, к.1",Москва,Россия,2,66,8,4558
"ул Куусинена, дом 1","Куусинена ул., д.1",Москва,Россия,4,113,8,7460
"ул Куусинена, дом 6, к 5","Куусинена ул., д.6, к.5",Москва,Россия,4,80,5,3390
"ул Куусинена, дом 6, к 13","Куусинена ул., д.6, к.13",Москва,Россия,3,118,9,5819
"ул Куусинена, дом 9, к 1","Куусинена ул., д.9, к.1",Москва,Россия,1,68,6,4771
"Ленинградский пр-кт, дом 57","Ленинградский просп., д.57",Москва,Россия,6,49,6,3748
"Ленинградский пр-кт, дом 24","Ленинградский просп., д.24",Москва,Россия,6,80,8,6630
"Ленинградский пр-кт, дом 43, к 2","Ленинградский просп., д.43, к.2",Москва,Россия,3,120,10,4986
"Ленинградский пр-кт, дом 19","Ленинградский просп., д.19",Москва,Россия,1,38,6,2337
"Ленинградский пр-кт, дом 10","Ленинградский просп., д.10",Москва,Россия,5,68,8,4888
"Ленинградский пр-кт, дом 45, к 2","Ленинградский просп., д.45, к.2",Москва,Россия,4,129,6,5617
"Ленинградский пр-кт, дом 3","Ленинградский пр-кт, дом 3",Москва,Россия,NULL,NULL,NULL,NULL
"Ленинградский пр-кт, дом 13","Ленинградский пр-кт, дом 13",Москва,Россия,NULL,NULL,NULL,NULL
"Ленинградский пр-кт, дом 37А","Ленинградский пр-кт, дом 37А",Москва,Россия,NULL,NULL,NULL,NULL
"Ленинградский пр-кт, дом 26, к 1","Ленинградский просп., д.26, к.1",Москва,Россия,5,30,7,2092
"Ленинградский пр-кт, дом 5, стр 2","Ленинградский просп., д.5, с.2",Москва,Россия,5,96,8,5995
"Ленинградский пр-кт, дом 11","Ленинградский просп., д.11",Москва,Россия,1,40,9,2336
"Ленинградский пр-кт, дом 59","Ленинградский просп., д.59",Москва,Россия,5,103,9,6685
"Ленинградский пр-кт, дом 33, к 5","Ленинградский просп., д.33, к.5",Москва,Россия,2,48,7,2246
"Ленинградский пр-кт, дом 26, к 2","Ленинградский просп., д.26, к.2",Москва,Россия,7,65,5,4855
"Ленинградский пр-кт, дом 18","Ленинградский просп., д.18",Москва,Россия,2,115,12,8359
"Ленинградский пр-кт, дом 27","Ленинградский просп., д.27",Москва,Россия,2,90,6,4821
"Ленинградский пр-кт, дом 33, к 1","Ленинградский просп., д.33, к.1",Москва,Россия,5,100,7,6486
"Ленинградский пр-кт, дом 33, к 1","Ленинградский просп., д.33, к.1",Москва,Россия,5,100,7,6486
"Ленинградский пр-кт, дом 4/2","Ленинградский просп., д.4/2",Москва,Россия,2,87,11,4032
"Ленинградский пр-кт, дом 2","Ленинградский просп., д.2",Москва,Россия,3,44,8,4304
"Ленинградский пр-кт, дом 14, к 1","Ленинградский просп., д.14, к.1",Москва,Россия,10,151,9,11552
"Ленинградский пр-кт, дом 33, к 3","Ленинградский просп., д.33, к.3",Москва,Россия,2,48,7,2206
"Ленинградский пр-кт, дом 5, стр 3","Ленинградский просп., д.5, с.3",Москва,Россия,2,62,7,3891
"Ленинградский пр-кт, дом 33, к 9","Ленинградский просп., д.33, к.9",Москва,Россия,2,40,5,1576
"Ленинградский пр-кт, дом 45, к 3","Ленинградский просп., д.45, к.3",Москва,Россия,4,96,5,4089
"Ленинградский пр-кт, дом 34","Ленинградский просп., д.34",Москва,Россия,4,106,7,4863
"Ленинградский пр-кт, дом 1","Ленинградский просп., д.1",Москва,Россия,6,130,9,8888
"Ленинградский пр-кт, дом 33А","Ленинградский просп., д.33А",Москва,Россия,5,520,12,16265
"Ленинградский пр-кт, дом 14, к 4","Ленинградский просп., д.14, к.4",Москва,Россия,3,64,7,4666
"Ленинградский пр-кт, дом 33, к 6","Ленинградский просп., д.33, к.6",Москва,Россия,3,67,7,4302
"Ленинградский пр-кт, дом 28","Ленинградский просп., д.28",Москва,Россия,14,248,8,18838
"Ленинградский пр-кт, дом 45, к 5","Ленинградский просп., д.45, к.5",Москва,Россия,1,64,9,2250
"Ленинградский пр-кт, дом 45, к 1","Ленинградский просп., д.45, к.1",Москва,Россия,4,65,6,3379
"Ленинградский пр-кт, дом 33, к 8","Ленинградский просп., д.33, к.8",Москва,Россия,3,60,5,2416
"Ленинградский пр-кт, дом 14, к 5","Ленинградский просп., д.14, к.5",Москва,Россия,3,66,8,4973
"Ленинградский пр-кт, дом 9","Ленинградский просп., д.9",Москва,Россия,6,136,8,10090
"Ленинградский пр-кт, дом 12","Ленинградский просп., д.12",Москва,Россия,4,77,8,5806
"Ленинградский пр-кт, дом 33, к 10","Ленинградский просп., д.33, к.10",Москва,Россия,1,24,6,1049
"Ленинградский пр-кт, дом 35","Ленинградский просп., д.35",Москва,Россия,4,88,6,5771
"Ленинградский пр-кт, дом 45, к 4","Ленинградский просп., д.45, к.4",Москва,Россия,1,64,9,2238
"Ленинградский пр-кт, дом 43, к 1","Ленинградский просп., д.43, к.1",Москва,Россия,1,72,9,2816
"Ленинградский пр-кт, дом 33, к 4","Ленинградский просп., д.33, к.4",Москва,Россия,3,82,7,3941
"Ленинградский пр-кт, дом 33, к 7","Ленинградский просп., д.33, к.7",Москва,Россия,3,60,5,2551
"Линейный проезд, дом 6","Линейный пр., д.6",Москва,Россия,3,50,5,3546
"Линейный проезд, дом 1","Линейный пр., д.1",Москва,Россия,3,60,5,2509
"Линейный проезд, дом 3","Линейный пр., д.3",Москва,Россия,3,60,5,2577
"Линейный проезд, дом 6А","Линейный пр., д.6А",Москва,Россия,3,36,5,1948
"Линейный проезд, дом 8","Линейный пр., д.8",Москва,Россия,4,55,5,3121
"ул Линии Октябрьской Железной Дороги, дом 6А","Линии Октябрьской Железной Дороги ул., д.6А",Москва,Россия,1,72,9,2640
"ул Линии Октябрьской Железной Дороги, дом 4А","Линии Октябрьской Железной Дороги ул., д.4А",Москва,Россия,3,60,5,2586
"ул Линии Октябрьской Железной Дороги, дом 4","Линии Октябрьской Железной Дороги ул., д.4",Москва,Россия,1,72,9,2578
"ул Линии Октябрьской Железной Дороги, дом 12","Линии Октябрьской Железной Дороги ул., д.12",Москва,Россия,6,90,5,4951
"ул Линии Октябрьской Железной Дороги, дом 6","Линии Октябрьской Железной Дороги ул., д.6",Москва,Россия,4,80,5,3522
"ул Линии Октябрьской Железной Дороги, дом 10","Линии Октябрьской Железной Дороги ул., д.10",Москва,Россия,2,88,5,4840
"ул Линии Октябрьской Железной Дороги, дом 10А","Линии Октябрьской Железной Дороги ул., д.10А",Москва,Россия,1,72,9,2540
"Лиственничная аллея, дом 16А, к 3","Лиственничная аллея, д.16А, к.3",Москва,Россия,3,363,22,14200
"Лиственничная аллея, дом 16А, к 4","Лиственничная аллея, д.16А, к.4",Москва,Россия,1,307,22,12481
"Лиственничная аллея, дом 14","Лиственничная аллея, д.14",Москва,Россия,2,6,4,6742
"Лиственничная аллея, дом 2А","Лиственничная аллея, д.2А",Москва,Россия,1,295,16,9033
"Лиственничная аллея, дом 2Б","Лиственничная аллея, д.2Б",Москва,Россия,2,310,16,9414
"Лиственничная аллея, дом 18, к 1","Лиственничная аллея, д.18, к.1",Москва,Россия,6,9,4,8649
"Лиственничная аллея, дом 12","Лиственничная аллея, д.12",Москва,Россия,6,7,4,7836
"Лиственничная аллея, дом 16","Лиственничная аллея, д.16",Москва,Россия,2,13,4,9779
"Локомотивный проезд, дом 5","Локомотивный пр., д.5",Москва,Россия,4,60,5,3005
"Локомотивный проезд, дом 9А","Локомотивный пр., д.9А",Москва,Россия,4,80,5,3393
"Локомотивный проезд, дом 3","Локомотивный пр., д.3",Москва,Россия,4,80,5,3437
"Локомотивный проезд, дом 15","Локомотивный пр., д.15",Москва,Россия,3,60,5,2526
"Локомотивный проезд, дом 9","Локомотивный пр., д.9",Москва,Россия,5,100,5,4454
"Локомотивный проезд, дом 11/10","Локомотивный пр., д.11/10",Москва,Россия,4,80,5,3401
"Локомотивный проезд, дом 15, к 2","Локомотивный пр., д.15, к.2",Москва,Россия,1,78,10,4232
"Локомотивный проезд, дом 29","Локомотивный пр., д.29",Москва,Россия,3,44,5,3001
"Локомотивный проезд, дом 31","Локомотивный пр., д.31",Москва,Россия,4,48,5,3498
"Локомотивный проезд, дом 7","Локомотивный пр., д.7",Москва,Россия,3,50,5,3450
"Локомотивный проезд, дом 23","Локомотивный пр., д.23",Москва,Россия,4,80,5,3512
"Локомотивный проезд, дом 13","Локомотивный пр., д.13",Москва,Россия,4,80,5,3446
"Локомотивный проезд, дом 19А","Локомотивный пр., д.19А",Москва,Россия,2,18,3,1159
"5-я Магистральная ул, дом 8","Магистральная 5-я ул., д.8",Москва,Россия,3,40,5,2877
"5-я Магистральная ул, дом 18","Магистральная 5-я ул., д.18",Москва,Россия,1,84,12,3647
"5-я Магистральная ул, дом 16","Магистральная 5-я ул., д.16",Москва,Россия,4,60,5,3222
"1-я Магистральная ул, дом 22, к 1","Магистральная 1-я ул., д.22, к.1",Москва,Россия,4,60,5,4601
"5-я Магистральная ул, дом 10","Магистральная 5-я ул., д.10",Москва,Россия,3,36,5,2535
"5-я Магистральная ул, дом 14, к 2","Магистральная 5-я ул., д.14, к.2",Москва,Россия,2,16,5,1391
"5-я Магистральная ул, дом 20","Магистральная 5-я ул., д.20",Москва,Россия,2,94,12,4280
"3-я Магистральная ул, дом 20Б","Магистральная 3-я ул., д.20Б",Москва,Россия,3,48,5,3387
"1-я Магистральная ул, дом 22, к 2","Магистральная 1-я ул., д.22, к.2",Москва,Россия,3,58,5,4141
"3-я Магистральная ул, дом 26Б","Магистральная 3-я ул., д.26Б",Москва,Россия,3,48,5,3450
"Магистральный пер, дом 7, к 2","Магистральный пер., д.7, к.2",Москва,Россия,3,40,5,2719
"Магистральный пер, дом 5","Магистральный пер., д.5",Москва,Россия,3,30,5,2603
"Магистральный пер, дом 7, к 1","Магистральный пер., д.7, к.1",Москва,Россия,2,20,5,1735
"Магистральный пер, дом 5А","Магистральный пер., д.5А",Москва,Россия,3,30,5,2594
"Мирской пер, дом 8, к 1","Мирской пер., д.8, к.1",Москва,Россия,3,40,5,2750
"Мирской пер, дом 16, к 1","Мирской пер., д.16, к.1",Москва,Россия,5,75,5,3959
"Мирской пер, дом 8, к 2","Мирской пер., д.8, к.2",Москва,Россия,3,30,5,2679
"Мирской пер, дом 8, к 3","Мирской пер., д.8, к.3",Москва,Россия,1,14,4,827
"Мирской пер, дом 16, к 2","Мирской пер., д.16, к.2",Москва,Россия,2,30,5,1605
"Мирской пер, дом 3","Мирской пер., д.3",Москва,Россия,1,72,9,2639
"Мирской пер, дом 4","Мирской пер., д.4",Москва,Россия,3,60,5,2555
"Мирской пер, дом 5","Мирской пер., д.5",Москва,Россия,3,42,5,2393
"Мишина ул, дом 32","Мишина ул., д.32",Москва,Россия,2,16,4,1429
"Мишина ул, дом 12","Мишина ул., д.12",Москва,Россия,4,135,9,5952
"Мишина ул, дом 34, к 2","Мишина ул., д.34, к.2",Москва,Россия,2,20,5,1778
"Мишина ул, дом 23","Мишина ул., д.23",Москва,Россия,3,40,5,3246
"Мишина ул, дом 34, к 1","Мишина ул., д.34, к.1",Москва,Россия,3,48,5,3624
"Мишина ул, дом 38","Мишина ул., д.38",Москва,Россия,5,61,5,4165
"Мишина ул, дом 39","Мишина ул., д.39",Москва,Россия,4,80,5,3411
"Мишина ул, дом 27","Мишина ул., д.27",Москва,Россия,1,111,16,5286
"Мишина ул, дом 22","Мишина ул., д.22",Москва,Россия,1,48,12,2197
"Мишина ул, дом 28","Мишина ул., д.28",Москва,Россия,4,60,5,3315
"Мишина ул, дом 42","Мишина ул., д.42",Москва,Россия,3,64,5,4423
"Мишина ул, дом 4","Мишина ул., д.4",Москва,Россия,1,84,12,3665
"Мишина ул, дом 29","Мишина ул., д.29",Москва,Россия,4,80,5,3445
"Мишина ул, дом 16","Мишина ул., д.16",Москва,Россия,2,163,9,4468
"Мишина ул, дом 26","Мишина ул., д.26",Москва,Россия,5,156,17,17539
"ул Немчинова, дом 2","Немчинова ул., д.2",Москва,Россия,3,102,8,6894
"ул Немчинова, дом 10","Немчинова ул., д.10",Москва,Россия,1,84,12,3661
"ул Немчинова, дом 12","Немчинова ул., д.12",Москва,Россия,3,23,4,1383
"ул Немчинова, дом 4","Немчинова ул., д.4",Москва,Россия,1,96,12,3572
"ул Немчинова, дом 1/25","Немчинова ул., д.1/25",Москва,Россия,3,119,14,8699
"3-й Нижнелихоборский проезд, дом 15/27","Нижнелихоборский 3-й пр., д.15/27",Москва,Россия,4,40,5,2756
"3-й Нижнелихоборский проезд, дом 11","Нижнелихоборский 3-й пр., д.11",Москва,Россия,3,42,5,2809
"3-й Нижнелихоборский проезд, дом 8","Нижнелихоборский 3-й пр., д.8",Москва,Россия,3,48,5,1990
"3-й Нижнелихоборский проезд, дом 14","Нижнелихоборский 3-й пр., д.14",Москва,Россия,3,46,5,3423
"3-й Нижнелихоборский проезд, дом 16/25","Нижнелихоборский 3-й пр., д.16/25",Москва,Россия,4,57,5,3137
"3-й Нижнелихоборский проезд, дом 4","Нижнелихоборский 3-й пр., д.4",Москва,Россия,3,42,5,2410
"3-й Нижнелихоборский проезд, дом 13, к 2","Нижнелихоборский 3-й пр., д.13, к.2",Москва,Россия,1,72,9,2611
"3-й Нижнелихоборский проезд, дом 6","Нижнелихоборский 3-й пр., д.6",Москва,Россия,3,143,12,7262
"3-й Нижнелихоборский проезд, дом 13, к 1","Нижнелихоборский 3-й пр., д.13, к.1",Москва,Россия,1,72,9,2589
"3-й Нижнелихоборский проезд, дом 8А","Нижнелихоборский 3-й пр., д.8А",Москва,Россия,3,95,8,3984
"3-й Нижнелихоборский проезд, дом 4А","Нижнелихоборский 3-й пр., д.4А",Москва,Россия,3,95,8,3980
"3-й Нижнелихоборский проезд, дом 16, к 1","Нижнелихоборский 3-й пр., д.16, к.1",Москва,Россия,2,104,14,6420
"3-й Нижнелихоборский проезд, дом 2, к 1","Нижнелихоборский 3-й пр., д.2, к.1",Москва,Россия,1,72,12,3560
"3-й Нижнелихоборский проезд, дом 2, к 1","Нижнелихоборский 3-й пр., д.2, к.1",Москва,Россия,1,72,12,3560
"Нижняя ул, дом 3","Нижняя ул., д.3",Москва,Россия,3,41,6,2780
"Нижняя ул, дом 5","Нижняя ул., д.5",Москва,Россия,4,52,5,2656
"Нижняя ул, дом 4","Нижняя ул., д.4",Москва,Россия,1,49,10,2740
"Нижняя ул, дом 7","Нижняя ул., д.7",Москва,Россия,3,44,5,2394
"Нижняя ул, дом 6","Нижняя ул., д.6",Москва,Россия,1,45,10,2523
"Нижняя ул, дом 11","Нижняя ул., д.11",Москва,Россия,4,78,5,3353
"ул Нижняя Масловка, дом 11, к 2","Масловка Нижн. ул., д.11, к.2",Москва,Россия,1,16,5,999
"ул Нижняя Масловка, дом 18","Масловка Нижн. ул., д.18",Москва,Россия,4,118,9,5419
"ул Нижняя Масловка, дом 5","ул Нижняя Масловка, дом 5",Москва,Россия,NULL,NULL,NULL,NULL
"ул Нижняя Масловка, дом 6, к 2","Масловка Нижн. ул., д.6, к.2",Москва,Россия,1,84,12,3618
"ул Нижняя Масловка, дом 8","Масловка Нижн. ул., д.8",Москва,Россия,8,256,9,10959
"ул Нижняя Масловка, дом 5, к 3","Масловка Нижн. ул., д.5, к.3",Москва,Россия,3,60,5,2502
"ул Нижняя Масловка, дом 5, к 2","Масловка Нижн. ул., д.5, к.2",Москва,Россия,4,60,5,3306
"ул Нижняя Масловка, дом 14","Масловка Нижн. ул., д.14",Москва,Россия,6,192,9,9444
"ул Нижняя Масловка, дом 11, к 1","Масловка Нижн. ул., д.11, к.1",Москва,Россия,2,36,5,1395
"ул Нижняя Масловка, дом 6, к 1","Масловка Нижн. ул., д.6, к.1",Москва,Россия,8,256,9,11172
"ул Нижняя Масловка, дом 5, к 1","Масловка Нижн. ул., д.5, к.1",Москва,Россия,4,79,5,3457
"ул Нижняя Масловка, дом 20","Масловка Нижн. ул., д.20",Москва,Россия,1,64,9,2307
"ул Новая Башиловка, дом 10","Башиловка Нов. ул., д.10",Москва,Россия,6,110,5,4796
"ул Новая Башиловка, дом 4","Башиловка Нов. ул., д.4",Москва,Россия,1,64,9,2676
"ул Новая Башиловка, дом 6","Башиловка Нов. ул., д.6",Москва,Россия,6,102,5,4404
"ул Новая Башиловка, дом 8","Башиловка Нов. ул., д.8",Москва,Россия,1,64,9,2667
"ул Новая Башиловка, дом 14","Башиловка Нов. ул., д.14",Москва,Россия,8,125,5,5546
"ул Новая Башиловка, дом 12","Башиловка Нов. ул., д.12",Москва,Россия,1,64,9,2669
"ул Новая Башиловка, дом 16","Башиловка Нов. ул., д.16",Москва,Россия,5,100,5,4286
"ул Острякова, дом 6","Острякова ул., д.6",Москва,Россия,7,155,10,11654
"ул Острякова, дом 11","Острякова ул., д.11",Москва,Россия,1,98,14,4216
"ул Острякова, дом 8","Острякова ул., д.8",Москва,Россия,5,129,6,8383
"ул Острякова, дом 5","Острякова ул., д.5",Москва,Россия,1,69,12,3411
"ул Острякова, дом 9","Острякова ул., д.9",Москва,Россия,3,142,12,8107
"Петровско-Разумовский проезд, дом 4А","Петровско-Разумовский пр., д.4А",Москва,Россия,3,60,5,2587
"Петровско-Разумовский проезд, дом 18А","Петровско-Разумовский пр., д.18А",Москва,Россия,2,40,5,1593
"Петровско-Разумовский проезд, дом 14","Петровско-Разумовский пр., д.14",Москва,Россия,3,72,6,4706
"Петровско-Разумовский проезд, дом 22, к 6","Петровско-Разумовский пр., д.22, к.6",Москва,Россия,3,50,5,3521
"Петровско-Разумовский проезд, дом 24, к 19","Петровско-Разумовский пр., д.24, к.19",Москва,Россия,6,253,12,14726
"Петровско-Разумовский проезд, дом 7","Петровско-Разумовский пр., д.7",Москва,Россия,4,132,9,5838
"Петровско-Разумовский проезд, дом 3/1","Петровско-Разумовский пр., д.3/1",Москва,Россия,1,72,9,2824
"Петровско-Разумовский проезд, дом 24, к 4","Петровско-Разумовский пр., д.24, к.4",Москва,Россия,4,60,5,4171
"Петровско-Разумовский проезд, дом 18","Петровско-Разумовский пр., д.18",Москва,Россия,5,168,9,7333
"Петровско-Разумовский проезд, дом 17","Петровско-Разумовский пр., д.17",Москва,Россия,3,58,5,4151
"Петровско-Разумовский проезд, дом 25А","Петровско-Разумовский пр., д.25А",Москва,Россия,1,98,14,4215
"Петровско-Разумовский проезд, дом 5","Петровско-Разумовский пр., д.5",Москва,Россия,5,164,10,7186
"Петровско-Разумовский проезд, дом 20","Петровско-Разумовский пр., д.20",Москва,Россия,1,84,12,3651
"Петровско-Разумовский проезд, дом 22, к 11","Петровско-Разумовский пр., д.22, к.11",Москва,Россия,3,21,5,1906
"Петровско-Разумовский проезд, дом 4","Петровско-Разумовский пр., д.4",Москва,Россия,3,54,5,2314
"Петровско-Разумовский проезд, дом 11А","Петровско-Разумовский пр., д.11А",Москва,Россия,3,60,5,2481
"Петровско-Разумовский проезд, дом 16","Петровско-Разумовский пр., д.16",Москва,Россия,4,141,8,12633
"Петровско-Разумовский проезд, дом 2","Петровско-Разумовский пр., д.2",Москва,Россия,1,64,9,2285
"Петровско-Разумовский проезд, дом 22, к 8","Петровско-Разумовский пр., д.22, к.8",Москва,Россия,3,95,8,6248
"Петровско-Разумовский проезд, дом 24, к 1","Петровско-Разумовский пр., д.24, к.1",Москва,Россия,4,55,5,3915
"Петровско-Разумовский проезд, дом 12","Петровско-Разумовский пр., д.12",Москва,Россия,5,75,5,3938
"Петровско-Разумовский проезд, дом 8","Петровско-Разумовский пр., д.8",Москва,Россия,5,140,5,3313
"Петровско-Разумовский проезд, дом 24, к 2","Петровско-Разумовский пр., д.24, к.2",Москва,Россия,4,56,5,3959
"Петровско-Разумовский проезд, дом 25, к 2","Петровско-Разумовский пр., д.25, к.2",Москва,Россия,5,99,5,4409
"Петровско-Разумовский проезд, дом 13, к 2","Петровско-Разумовский пр., д.13, к.2",Москва,Россия,1,15,4,971
"Петровско-Разумовский проезд, дом 8А","Петровско-Разумовский пр., д.8А",Москва,Россия,4,80,5,3486
"Петровско-Разумовский проезд, дом 13, к 1","Петровско-Разумовский пр., д.13, к.1",Москва,Россия,3,59,5,4102
"Петровско-Разумовский проезд, дом 15","Петровско-Разумовский пр., д.15",Москва,Россия,4,136,14,15623
"Петровско-Разумовский проезд, дом 9, стр 1","Петровско-Разумовский пр., д.9, с.1",Москва,Россия,2,178,12,7062
"Петровско-Разумовский проезд, дом 24, к 17","Петровско-Разумовский пр., д.24, к.17",Москва,Россия,2,40,5,1556
"Петровско-Разумовский проезд, дом 17А","Петровско-Разумовский пр., д.17А",Москва,Россия,1,94,14,4101
"Петровско-Разумовский проезд, дом 24, к 15","Петровско-Разумовский пр., д.24, к.15",Москва,Россия,3,60,5,2567
"Петровско-Разумовский проезд, дом 16, к 2","Петровско-Разумовский пр., д.16, к.2",Москва,Россия,3,60,7,4695
"Петровско-Разумовский проезд, дом 24, к 5","Петровско-Разумовский пр., д.24, к.5",Москва,Россия,2,28,5,2002
"Петровско-Разумовский проезд, дом 24, к 18","Петровско-Разумовский пр., д.24, к.18",Москва,Россия,2,30,5,1612
"Петровско-Разумовский проезд, дом 25, к 3","Петровско-Разумовский пр., д.25, к.3",Москва,Россия,5,100,5,4493
"Петровско-Разумовский проезд, дом 24, к 3","Петровско-Разумовский пр., д.24, к.3",Москва,Россия,3,84,7,5563
"Петровско-Разумовский проезд, дом 10","Петровско-Разумовский пр., д.10",Москва,Россия,4,128,9,5463
"Петровско-Разумовский проезд, дом 25, к 1","Петровско-Разумовский пр., д.25, к.1",Москва,Россия,5,100,5,4441
"Писцовая ул, дом 15","Писцовая ул., д.15",Москва,Россия,2,55,7,2277
"Писцовая ул, дом 13","Писцовая ул., д.13",Москва,Россия,3,60,5,2501
"Писцовая ул, дом 16, к 4","Писцовая ул., д.16, к.4",Москва,Россия,4,37,5,3120
"Писцовая ул, дом 16, к 6","Писцовая ул., д.16, к.6",Москва,Россия,3,64,5,4483
"Писцовая ул, дом 14","Писцовая ул., д.14",Москва,Россия,5,50,5,3675
"Писцовая ул, дом 9-11","Писцовая ул., д.9-11",Москва,Россия,3,40,5,2057
"Писцовая ул, дом 16, к 2","Писцовая ул., д.16, к.2",Москва,Россия,4,52,5,2822
"Писцовая ул, дом 16, к 3","Писцовая ул., д.16, к.3",Москва,Россия,4,40,5,3259
"Писцовая ул, дом 16, к 1","Писцовая ул., д.16, к.1",Москва,Россия,3,40,5,3187
"ул Поликарпова, дом 19, к 2","Поликарпова ул., д.19, к.2",Москва,Россия,1,111,16,5295
"ул Поликарпова, дом 8","Поликарпова ул., д.8",Москва,Россия,2,88,12,5022
"ул Поликарпова, дом 19, к 1","Поликарпова ул., д.19, к.1",Москва,Россия,1,111,16,5277
"ул Поликарпова, дом 11","Поликарпова ул., д.11",Москва,Россия,1,110,16,5245
"ул Поликарпова, дом 21, к 4","Поликарпова ул., д.21, к.4",Москва,Россия,1,84,12,3682
"ул Поликарпова, дом 23","Поликарпова ул., д.23",Москва,Россия,1,98,14,4231
"ул Поликарпова, дом 25","Поликарпова ул., д.25",Москва,Россия,1,93,14,4024
"ул Поликарпова, дом 9","Поликарпова ул., д.9",Москва,Россия,1,111,16,5311
"ул Поликарпова, дом 10/12","ул Поликарпова, дом 10/12",Москва,Россия,NULL,NULL,NULL,NULL
"ул Полины Осипенко, дом 22, к 1","Полины Осипенко ул., д.22, к.1",Москва,Россия,2,134,17,8834
"ул Полины Осипенко, дом 16","Полины Осипенко ул., д.16",Москва,Россия,6,390,17,25125
"ул Полины Осипенко, дом 22, к 3","Полины Осипенко ул., д.22, к.3",Москва,Россия,5,329,17,19348
"ул Полины Осипенко, дом 20, к 1","Полины Осипенко ул., д.20, к.1",Москва,Россия,2,132,17,7567
"ул Полины Осипенко, дом 14, к 1","Полины Осипенко ул., д.14, к.1",Москва,Россия,9,586,17,33105
"ул Полины Осипенко, дом 10, к 1","Полины Осипенко ул., д.10, к.1",Москва,Россия,7,437,22,35960
"ул Полины Осипенко, дом 18, к 1","Полины Осипенко ул., д.18, к.1",Москва,Россия,2,136,17,8800
"ул Полины Осипенко, дом 22, к 2","Полины Осипенко ул., д.22, к.2",Москва,Россия,2,134,17,7586
"ул Полины Осипенко, дом 18, к 2","Полины Осипенко ул., д.18, к.2",Москва,Россия,7,465,17,29827
"Полтавская ул, дом 39-41","Полтавская ул., д.39-41",Москва,Россия,3,56,5,2302
"Полтавская ул, дом 47, к 2","Полтавская ул., д.47, к.2",Москва,Россия,3,261,22,16709
"Полтавская ул, дом 33","Полтавская ул., д.33",Москва,Россия,3,56,5,2306
"Полтавская ул, дом 16, к 1","Полтавская ул., д.16, к.1",Москва,Россия,2,36,5,2355
"Полтавская ул, дом 2","Полтавская ул., д.2",Москва,Россия,6,211,9,10054
"Полтавская ул, дом 4","Полтавская ул., д.4",Москва,Россия,2,151,9,7491
"Полтавская ул, дом 16, к 2","Полтавская ул., д.16, к.2",Москва,Россия,2,38,5,2608
"Полтавская ул, дом 35","Полтавская ул., д.35",Москва,Россия,6,120,5,5207
"Полтавская ул, дом 18","Полтавская ул., д.18",Москва,Россия,7,75,6,7861
"Полтавская ул, дом 6","Полтавская ул., д.6",Москва,Россия,1,108,16,5160
"Полтавская ул, дом 47, к 1","Полтавская ул., д.47, к.1",Москва,Россия,4,208,17,13288
"ул Правды, дом 1","Правды ул., д.1",Москва,Россия,3,96,9,4820
"ул Правды, дом 33","ул Правды, дом 33",Москва,Россия,NULL,NULL,NULL,NULL
"ул Правды, дом 7/9","Правды ул., д.7/9",Москва,Россия,6,215,9,14445
"ул Правды, дом 2А","Правды ул., д.2А",Москва,Россия,5,78,7,4972
"ул Правды, дом 1/2","Правды ул., д.1/2",Москва,Россия,13,143,6,9793
"ул Правды, дом 3/1","Правды ул., д.3/1",Москва,Россия,4,191,8,8343
"ул Правды, дом 5","Правды ул., д.5",Москва,Россия,1,108,16,5137
"ул Правды, дом 4","Правды ул., д.4",Москва,Россия,3,84,8,5598
"ул Правды, дом 6/34","Правды ул., д.6/34",Москва,Россия,3,84,8,5785
"ул Правды, дом 11","Правды ул., д.11",Москва,Россия,8,158,9,11679
"ул Правды, дом 17/19","Правды ул., д.17/19",Москва,Россия,4,94,6,5740
"ул Прянишникова, дом 14, к 1","Прянишникова ул., д.14, к.1",Москва,Россия,2,4,5,1858
"ул Расковой, дом 11","Расковой ул., д.11",Москва,Россия,4,144,9,6230
"ул Расковой, дом 9","Расковой ул., д.9",Москва,Россия,4,80,5,3499
"ул Расковой, дом 22, к 1","Расковой ул., д.22, к.1",Москва,Россия,2,40,5,1616
"ул Расковой, дом 1","Расковой ул., д.1",Москва,Россия,7,132,6,5883
"ул Расковой, дом 26/29","Расковой ул., д.26/29",Москва,Россия,4,160,12,8120
"ул Расковой, дом 8","Расковой ул., д.8",Москва,Россия,2,44,6,2934
"ул Расковой, дом 33","ул Расковой, дом 33",Москва,Россия,NULL,NULL,NULL,NULL
"пер Расковой, дом 17","Расковой пер., д.17",Москва,Россия,1,72,9,2592
"ул Расковой, дом 12","Расковой ул., д.12",Москва,Россия,2,40,6,2729
"ул Расковой, дом 22А","Расковой ул., д.22А",Москва,Россия,3,30,5,2684
"ул Расковой, дом 25","Расковой ул., д.25",Москва,Россия,2,65,9,4409
"ул Расковой, дом 3","Расковой ул., д.3",Москва,Россия,4,80,5,3531
"ул Расковой, дом 10","Расковой ул., д.10",Москва,Россия,2,14,5,1270
"ул Расковой, дом 13","Расковой ул., д.13",Москва,Россия,2,4,5,2682
"ул Расковой, дом 24А","Расковой ул., д.24А",Москва,Россия,1,83,12,3556
"ул Расковой, дом 30","Расковой ул., д.30",Москва,Россия,4,93,7,5980
"ул Расковой, дом 16","Расковой ул., д.16",Москва,Россия,3,45,5,2864
"ул Расковой, дом 16/26, к 3","Расковой ул., д.16/26, к.3",Москва,Россия,6,64,5,3329
"пер Расковой, дом 19","Расковой пер., д.19",Москва,Россия,3,62,5,2573
"ул Расковой, дом 16/26, к 2","Расковой ул., д.16/26, к.2",Москва,Россия,6,56,5,3380
"пер Расковой, дом 24","Расковой пер., д.24",Москва,Россия,3,48,5,3481
"ул Расковой, дом 5","Расковой ул., д.5",Москва,Россия,4,80,5,3526
"ул Расковой, дом 16/26, к 1","Расковой ул., д.16/26, к.1",Москва,Россия,6,72,5,4202
"ул Расковой, дом 14","Расковой ул., д.14",Москва,Россия,4,137,9,5894
"ул Расковой, дом 22, к 2","Расковой ул., д.22, к.2",Москва,Россия,2,40,5,1621
"ул Расковой, дом 7","Расковой ул., д.7",Москва,Россия,4,80,5,3527
"ул Расковой, дом 23А","Расковой ул., д.23А",Москва,Россия,3,83,7,6198
"Скаковая аллея, дом 9","Скаковая аллея, д.9",Москва,Россия,1,72,9,3020
"Скаковая ул, дом 13, к 2","Скаковая ул., д.13, к.2",Москва,Россия,1,111,16,5254
"Скаковая ул, дом 15, к 1","Скаковая ул., д.15, к.1",Москва,Россия,1,98,14,4239
"Скаковая ул, дом 34, к 3","Скаковая ул., д.34, к.3",Москва,Россия,1,108,16,5157
"Скаковая ул, дом 9","Скаковая ул., д.9",Москва,Россия,2,188,7,4457
"Скаковая ул, дом 13, к 1","Скаковая ул., д.13, к.1",Москва,Россия,1,111,16,5313
"Скаковая ул, дом 34, к 2","Скаковая ул., д.34, к.2",Москва,Россия,3,60,5,2444
"Скаковая ул, дом 34, к 1","Скаковая ул., д.34, к.1",Москва,Россия,3,60,5,2424
"Скаковая ул, дом 18","Скаковая ул., д.18",Москва,Россия,4,80,5,3145
"Скаковая ул, дом 15, к 2","Скаковая ул., д.15, к.2",Москва,Россия,1,98,14,4232
"Скаковая ул, дом 4","Скаковая ул, дом 4",Москва,Россия,NULL,NULL,NULL,NULL
"Скаковая ул, дом 5","Скаковая ул., д.5",Москва,Россия,5,199,14,19911
"Скаковая ул, дом 34, к 4","Скаковая ул., д.34, к.4",Москва,Россия,1,107,16,5157
"Скаковая ул, дом 14","Скаковая ул., д.14",Москва,Россия,3,59,5,2485
"Скаковая ул, дом 7/21А","Скаковая ул., д.7/21А",Москва,Россия,2,32,4,2147
"Скаковая ул, дом 18А","Скаковая ул., д.18А",Москва,Россия,4,66,5,2589
"проезд Соломенной Сторожки, дом 8","Соломенной Сторожки пр., д.8",Москва,Россия,3,50,5,3433
"проезд Соломенной Сторожки, дом 16","проезд Соломенной Сторожки, дом 16",Москва,Россия,NULL,NULL,NULL,NULL
"проезд Соломенной Сторожки, дом 6","Соломенной Сторожки пр., д.6",Москва,Россия,4,80,5,3353
"проезд Соломенной Сторожки, дом 5А","Соломенной Сторожки пр., д.5А",Москва,Россия,1,36,9,1609
"проезд Соломенной Сторожки, дом 5","Соломенной Сторожки пр., д.5",Москва,Россия,4,80,5,3362
"проезд Соломенной Сторожки, дом 3А","Соломенной Сторожки пр., д.3А",Москва,Россия,1,34,9,1518
"проезд Соломенной Сторожки, дом 5, к 1","Соломенной Сторожки пр., д.5, к.1",Москва,Россия,4,143,20,18598
"проезд Соломенной Сторожки, дом 10А","Соломенной Сторожки пр., д.10А",Москва,Россия,1,96,12,3641
"проезд Соломенной Сторожки, дом 12А","Соломенной Сторожки пр., д.12А",Москва,Россия,1,84,12,3613
"проезд Соломенной Сторожки, дом 3","Соломенной Сторожки пр., д.3",Москва,Россия,4,79,5,3372
"проезд Соломенной Сторожки, дом 10","Соломенной Сторожки пр., д.10",Москва,Россия,3,50,5,3455
"Старый Петровско-Разумовский проезд, дом 3","Петровско-Разумовский Стар. пр., д.3",Москва,Россия,1,73,12,3474
"Старый Петровско-Разумовский проезд, дом 6, к 3","Петровско-Разумовский Стар. пр., д.6, к.3",Москва,Россия,1,110,16,5251
"Старый Петровско-Разумовский проезд, дом 5-13","Петровско-Разумовский Стар. пр., д.5-13",Москва,Россия,5,97,5,4215
"Старый Петровско-Разумовский проезд, дом 6, к 2","Петровско-Разумовский Стар. пр., д.6, к.2",Москва,Россия,3,60,5,2480
"Старый Петровско-Разумовский проезд, дом 6, к 1","Петровско-Разумовский Стар. пр., д.6, к.1",Москва,Россия,4,80,5,3408
"Старый Петровско-Разумовский проезд, дом 15-17","Петровско-Разумовский Стар. пр., д.15-17",Москва,Россия,3,29,5,2587
"Тимирязевская ул, дом 25","Тимирязевская ул., д.25",Москва,Россия,4,128,9,5540
"Тимирязевская ул, дом 13","Тимирязевская ул., д.13",Москва,Россия,6,214,9,10457
"Тимирязевская ул, дом 33, стр 9","Тимирязевская ул., д.33, с.9",Москва,Россия,1,1,1,153
"Тимирязевская ул, дом 33, стр 7","Тимирязевская ул., д.33, с.7",Москва,Россия,1,1,1,144
"Тимирязевская ул, дом 15","Тимирязевская ул., д.15",Москва,Россия,1,81,12,3451
"Тимирязевская ул, дом 34, к 2","Тимирязевская ул., д.34, к.2",Москва,Россия,3,108,9,4482
"Тимирязевская ул, дом 32, к 2","Тимирязевская ул., д.32, к.2",Москва,Россия,3,108,9,4502
"Тимирязевская ул, дом 20, к 1","Тимирязевская ул., д.20, к.1",Москва,Россия,4,80,5,3548
"Тимирязевская ул, дом 12","Тимирязевская ул., д.12",Москва,Россия,3,108,9,4492
"Тимирязевская ул, дом 33, стр 18","Тимирязевская ул., д.33, с.18",Москва,Россия,2,4,1,136
"Тимирязевская ул, дом 33, стр 16","Тимирязевская ул., д.33, с.16",Москва,Россия,1,1,1,161
"Тимирязевская ул, дом 33, стр 13","Тимирязевская ул., д.33, с.13",Москва,Россия,1,1,2,321
"Тимирязевская ул, дом 6","Тимирязевская ул., д.6",Москва,Россия,5,148,8,6442
"Тимирязевская ул, дом 8","Тимирязевская ул., д.8",Москва,Россия,4,80,5,3142
"Тимирязевская ул, дом 33, стр 11","Тимирязевская ул., д.33, с.11",Москва,Россия,1,2,1,147
"Тимирязевская ул, дом 33, стр 15","Тимирязевская ул., д.33, с.15",Москва,Россия,2,4,1,242
"Тимирязевская ул, дом 38/25","Тимирязевская ул., д.38/25",Москва,Россия,1,92,12,3478
"Тимирязевская ул, дом 38/25","Тимирязевская ул., д.38/25",Москва,Россия,1,92,12,3478
"Тимирязевская ул, дом 11","Тимирязевская ул., д.11",Москва,Россия,1,81,12,3441
"Тимирязевская ул, дом 11, к 1","Тимирязевская ул., д.11, к.1",Москва,Россия,1,52,14,2393
"Тимирязевская ул, дом 23","Тимирязевская ул., д.23",Москва,Россия,1,91,12,3380
"Тимирязевская ул, дом 53","Тимирязевская ул., д.53",Москва,Россия,1,1,2,154
"Тимирязевская ул, дом 17А","Тимирязевская ул., д.17А",Москва,Россия,1,80,12,3451
"Тимирязевская ул, дом 33, стр 10","Тимирязевская ул., д.33, с.10",Москва,Россия,1,1,1,179
"Тимирязевская ул, дом 19","Тимирязевская ул., д.19",Москва,Россия,1,92,12,3429
"Тимирязевская ул, дом 30, к 2","Тимирязевская ул., д.30, к.2",Москва,Россия,3,108,9,4519
"Тимирязевская ул, дом 4/12","Тимирязевская ул., д.4/12",Москва,Россия,5,141,8,9463
"Тимирязевская ул, дом 32, к 1","Тимирязевская ул., д.32, к.1",Москва,Россия,1,84,12,3602
"Тимирязевская ул, дом 10/12","Тимирязевская ул., д.10/12",Москва,Россия,9,247,8,16716
"Тимирязевская ул, дом 20, к 2","Тимирязевская ул., д.20, к.2",Москва,Россия,4,80,5,3512
"Тимирязевская ул, дом 33, стр 8","Тимирязевская ул., д.33, с.8",Москва,Россия,1,2,1,136
"Тимирязевская ул, дом 17, к 1","Тимирязевская ул., д.17, к.1",Москва,Россия,1,52,14,2365
"Тимирязевская ул, дом 18, к 2","Тимирязевская ул., д.18, к.2",Москва,Россия,1,68,9,2396
"Тимирязевская ул, дом 33, стр 6","Тимирязевская ул., д.33, с.6",Москва,Россия,1,1,1,251
"Тимирязевская ул, дом 33, стр 14","Тимирязевская ул., д.33, с.14",Москва,Россия,1,1,1,157
"Тимирязевская ул, дом 34, к 1","Тимирязевская ул., д.34, к.1",Москва,Россия,1,84,12,3644
"Тимирязевская ул, дом 18, к 1","Тимирязевская ул., д.18, к.1",Москва,Россия,3,60,5,2598
"Тимирязевская ул, дом 33, стр 16А","Тимирязевская ул., д.33, с.16А",Москва,Россия,1,2,1,194
"Тимирязевская ул, дом 9","Тимирязевская ул., д.9",Москва,Россия,4,142,9,6336
"Тимирязевская ул, дом 7","Тимирязевская ул., д.7",Москва,Россия,1,100,12,4798
"Тимирязевская ул, дом 14","Тимирязевская ул., д.14",Москва,Россия,2,56,8,3877
"Тимирязевская ул, дом 8, к 1","Тимирязевская ул., д.8, к.1",Москва,Россия,1,143,20,13753
"Тимирязевская ул, дом 33, стр 12","Тимирязевская ул., д.33, с.12",Москва,Россия,1,1,1,70
"Тимирязевская ул, дом 16","Тимирязевская ул., д.16",Москва,Россия,7,195,8,12874
"Тимирязевская ул, дом 30, к 1","Тимирязевская ул., д.30, к.1",Москва,Россия,1,84,12,3673
"Ходынский б-р, дом 5, к 4","Ходынский бульв., д.5, к.4",Москва,Россия,1,115,32,13378
"Ходынский б-р, дом 13","Ходынский бульв., д.13",Москва,Россия,10,252,12,24775
"Ходынский б-р, дом 5, к 1","Ходынский бульв., д.5, к.1",Москва,Россия,1,116,32,13363
"Ходынский б-р, дом 5, к 3","Ходынский бульв., д.5, к.3",Москва,Россия,1,116,32,13345
"Ходынский б-р, дом 11","Ходынский бульв., д.11",Москва,Россия,10,242,12,24627
"Ходынский б-р, дом 9","Ходынский бульв., д.9",Москва,Россия,10,255,12,24657
"Ходынский б-р, дом 17","Ходынский бульв., д.17",Москва,Россия,10,245,12,24617
"Ходынский б-р, дом 5, к 2","Ходынский бульв., д.5, к.2",Москва,Россия,1,115,32,13294
"Ходынский б-р, дом 19","Ходынский бульв., д.19",Москва,Россия,10,252,12,24743
"Ходынский б-р, дом 15","Ходынский бульв., д.15",Москва,Россия,10,250,12,24640
"2-й Хорошёвский проезд, дом 7А","Хорошевский 2-й пр., д.7А",Москва,Россия,3,45,5,2484
"1-й Хорошёвский проезд, дом 5","1-й Хорошёвский проезд, дом 5",Москва,Россия,NULL,NULL,NULL,NULL
"2-й Хорошёвский проезд, дом 7Б","Хорошевский 2-й пр., д.7Б",Москва,Россия,3,45,5,2494
"1-й Хорошёвский проезд, дом 16, к 1","Хорошевский 1-й пр., д.16, к.1",Москва,Россия,3,34,4,1782
"1-й Хорошёвский проезд, дом 12, к 3","Хорошевский 1-й пр., д.12, к.3",Москва,Россия,3,36,4,1763
"1-й Хорошёвский проезд, дом 14, к 3","Хорошевский 1-й пр., д.14, к.3",Москва,Россия,3,35,4,1755
"2-й Хорошёвский проезд, дом 5","Хорошевский 2-й пр., д.5",Москва,Россия,2,128,17,7012
"1-й Хорошёвский проезд, дом 10, к 1","Хорошевский 1-й пр., д.10, к.1",Москва,Россия,4,47,4,2375
"2-й Хорошёвский проезд, дом 3","Хорошевский 2-й пр., д.3",Москва,Россия,4,56,5,2767
"1-й Хорошёвский проезд, дом 4, к 1","Хорошевский 1-й пр., д.4, к.1",Москва,Россия,3,35,4,1732
"1-й Хорошёвский проезд, дом 12, к 1","Хорошевский 1-й пр., д.12, к.1",Москва,Россия,3,34,4,1660
"1-й Хорошёвский проезд, дом 16, к 2","Хорошевский 1-й пр., д.16, к.2",Москва,Россия,3,35,4,1779
"3-й Хорошёвский проезд, дом 8","Хорошевский 3-й пр., д.8",Москва,Россия,3,192,17,10625
"1-й Хорошёвский проезд, дом 2/17","Хорошевский 1-й пр., д.2/17",Москва,Россия,9,112,6,6198
"3-й Хорошёвский проезд, дом 4","Хорошевский 3-й пр., д.4",Москва,Россия,4,252,17,16319
"3-й Хорошёвский проезд, дом 10","Хорошевский 3-й пр., д.10",Москва,Россия,3,52,5,3569
"1-й Хорошёвский проезд, дом 4, к 2","Хорошевский 1-й пр., д.4, к.2",Москва,Россия,3,35,4,1788
"1-й Хорошёвский проезд, дом 12, к 2","Хорошевский 1-й пр., д.12, к.2",Москва,Россия,3,35,4,1742
"Хорошёвский туп, дом 7","Хорошевский туп., д.7",Москва,Россия,3,60,5,2502
"1-й Хорошёвский проезд, дом 10, к 2","Хорошевский 1-й пр., д.10, к.2",Москва,Россия,4,47,4,2372
"1-й Хорошёвский проезд, дом 14, к 2","Хорошевский 1-й пр., д.14, к.2",Москва,Россия,3,36,4,1754
"1-й Хорошёвский проезд, дом 4, к 3","Хорошевский 1-й пр., д.4, к.3",Москва,Россия,3,36,4,1795
"1-й Хорошёвский проезд, дом 14, к 1","Хорошевский 1-й пр., д.14, к.1",Москва,Россия,3,33,4,1638
"1-й Хорошёвский проезд, дом 6","Хорошевский 1-й пр., д.6",Москва,Россия,4,47,4,2384
"Хорошёвское ш, дом 50, к 2","Хорошевское шоссе, д.50, к.2",Москва,Россия,2,136,17,8663
"Хорошёвское ш, дом 82","Хорошевское шоссе, д.82",Москва,Россия,5,36,4,2594
"Хорошёвское ш, дом 84, к 6","Хорошевское шоссе, д.84, к.6",Москва,Россия,1,58,14,4980
"Хорошёвское ш, дом 34","Хорошевское шоссе, д.34",Москва,Россия,3,40,5,2771
"Хорошёвское ш, дом 68, к 1","Хорошевское шоссе, д.68, к.1",Москва,Россия,3,192,17,10568
"Хорошёвское ш, дом 43, к А","Хорошевское шоссе, д.43, к.А",Москва,Россия,3,58,5,2356
"Хорошёвское ш, дом 64, к 1","Хорошевское шоссе, д.64, к.1",Москва,Россия,4,255,16,16198
"Хорошёвское ш, дом 88","Хорошевское шоссе, д.88",Москва,Россия,2,58,8,3929
"Хорошёвское ш, дом 43, к В","Хорошевское шоссе, д.43, к.В",Москва,Россия,2,36,5,1367
"Хорошёвское ш, дом 23, к 2","Хорошевское шоссе, д.23, к.2",Москва,Россия,2,34,5,2189
"Хорошёвское ш, дом 36А","Хорошевское шоссе, д.36А",Москва,Россия,1,72,9,2586
"Хорошёвское ш, дом 52, к 2","Хорошевское шоссе, д.52, к.2",Москва,Россия,3,196,17,10850
"Хорошёвское ш, дом 23, к 1","Хорошевское шоссе, д.23, к.1",Москва,Россия,4,16,3,1447
"Хорошёвское ш, дом 39, к 2","Хорошевское шоссе, д.39, к.2",Москва,Россия,1,83,12,3636
"Хорошёвское ш, дом 16, к 1","Хорошевское шоссе, д.16, к.1",Москва,Россия,1,224,43,21861
"Хорошёвское ш, дом 70, к 1","Хорошевское шоссе, д.70, к.1",Москва,Россия,2,128,17,6988
"Хорошёвское ш, дом 76, к 4","Хорошевское шоссе, д.76, к.4",Москва,Россия,1,70,9,2499
"Хорошёвское ш, дом 66","Хорошевское шоссе, д.66",Москва,Россия,3,196,17,10684
"Хорошёвское ш, дом 11","Хорошевское шоссе, д.11",Москва,Россия,4,263,17,14534
"Хорошёвское ш, дом 72, к 3","Хорошевское шоссе, д.72, к.3",Москва,Россия,2,39,5,1531
"Хорошёвское ш, дом 7, стр 2","Хорошевское шоссе, д.7, с.2",Москва,Россия,4,80,5,3513
"Хорошёвское ш, дом 84, к 5","Хорошевское шоссе, д.84, к.5",Москва,Россия,1,52,14,4968
"Хорошёвское ш, дом 5, к 2","Хорошевское шоссе, д.5, к.2",Москва,Россия,3,203,17,11228
"Хорошёвское ш, дом 52, к 1","Хорошевское шоссе, д.52, к.1",Москва,Россия,2,128,17,6966
"Хорошёвское ш, дом 68, к 4","Хорошевское шоссе, д.68, к.4",Москва,Россия,3,73,5,3610
"Хорошёвское ш, дом 36Б","Хорошевское шоссе, д.36Б",Москва,Россия,1,63,9,2704
"Хорошёвское ш, дом 16, к 2","Хорошевское шоссе, д.16, к.2",Москва,Россия,1,297,43,23123
"Хорошёвское ш, дом 82, к 11","Хорошевское шоссе, д.82, к.11",Москва,Россия,2,40,5,1555
"Хорошёвское ш, дом 82, к 9","Хорошевское шоссе, д.82, к.9",Москва,Россия,3,60,5,2441
"Хорошёвское ш, дом 84, к 2","Хорошевское шоссе, д.84, к.2",Москва,Россия,2,18,3,1255
"Хорошёвское ш, дом 72, к 4","Хорошевское шоссе, д.72, к.4",Москва,Россия,4,80,5,3400
"Хорошёвское ш, дом 82, к 2","Хорошевское шоссе, д.82, к.2",Москва,Россия,4,80,5,3343
"Хорошёвское ш, дом 41, к Г","Хорошевское шоссе, д.41, к.Г",Москва,Россия,3,48,5,1995
"Хорошёвское ш, дом 50, к 1","Хорошевское шоссе, д.50, к.1",Москва,Россия,3,192,17,10481
"Хорошёвское ш, дом 43, к Б","Хорошевское шоссе, д.43, к.Б",Москва,Россия,4,45,5,1804
"Хорошёвское ш, дом 56","Хорошевское шоссе, д.56",Москва,Россия,2,136,17,8654
"Хорошёвское ш, дом 76, к 5","Хорошевское шоссе, д.76, к.5",Москва,Россия,1,70,9,2498
"Хорошёвское ш, дом 13А, к 3","Хорошевское шоссе, д.13А, к.3",Москва,Россия,2,40,5,2626
"Хорошёвское ш, дом 72, к 1","Хорошевское шоссе, д.72, к.1",Москва,Россия,3,195,17,10654
"Хорошёвское ш, дом 64, к 2","Хорошевское шоссе, д.64, к.2",Москва,Россия,2,136,17,8707
"Хорошёвское ш, дом 84, к 4","Хорошевское шоссе, д.84, к.4",Москва,Россия,2,18,3,1133
"Хорошёвское ш, дом 12, к 1","Хорошевское шоссе, д.12, к.1",Москва,Россия,6,1947,37,126970
"Хорошёвское ш, дом 68, к 5","Хорошевское шоссе, д.68, к.5",Москва,Россия,4,64,5,2700
"Хорошёвское ш, дом 50, к 3","Хорошевское шоссе, д.50, к.3",Москва,Россия,3,204,17,13027
"Хорошёвское ш, дом 92","Хорошевское шоссе, д.92",Москва,Россия,2,58,8,3886
"Хорошёвское ш, дом 82, к 8","Хорошевское шоссе, д.82, к.8",Москва,Россия,4,80,5,3346
"Хорошёвское ш, дом 9","Хорошевское шоссе, д.9",Москва,Россия,2,32,5,1276
"Хорошёвское ш, дом 46","Хорошевское шоссе, д.46",Москва,Россия,3,195,17,10810
"Хорошёвское ш, дом 62","Хорошевское шоссе, д.62",Москва,Россия,3,191,17,12283
"Хорошёвское ш, дом 80","Хорошевское шоссе, д.80",Москва,Россия,4,304,22,19915
"Хорошёвское ш, дом 70, к 3","Хорошевское шоссе, д.70, к.3",Москва,Россия,2,40,5,1565
"Хорошёвское ш, дом 41, к Е","Хорошевское шоссе, д.41, к.Е",Москва,Россия,4,80,5,3454
"Хорошёвское ш, дом 96","Хорошевское шоссе, д.96",Москва,Россия,1,23,12,10430
"Хорошёвское ш, дом 13А, к 1","Хорошевское шоссе, д.13А, к.1",Москва,Россия,2,40,5,2620
"Хорошёвское ш, дом 74, к 3","Хорошевское шоссе, д.74, к.3",Москва,Россия,4,79,5,3433
"Хорошёвское ш, дом 7, стр 1","Хорошевское шоссе, д.7, с.1",Москва,Россия,2,40,5,1592
"Хорошёвское ш, дом 21А","Хорошевское шоссе, д.21А",Москва,Россия,3,40,5,2871
"Хорошёвское ш, дом 13А, к 2","Хорошевское шоссе, д.13А, к.2",Москва,Россия,2,40,5,2652
"Хорошёвское ш, дом 84, к 1","Хорошевское шоссе, д.84, к.1",Москва,Россия,2,10,2,631
"Хорошёвское ш, дом 39, к 1","Хорошевское шоссе, д.39, к.1",Москва,Россия,1,84,12,3628
"Хорошёвское ш, дом 13, к 3","Хорошевское шоссе, д.13, к.3",Москва,Россия,3,64,6,4537
"Хорошёвское ш, дом 82, к 1","Хорошевское шоссе, д.82, к.1",Москва,Россия,2,18,3,1241
"Хорошёвское ш, дом 38, к 1","Хорошёвское ш, дом 38, к 1",Москва,Россия,NULL,NULL,NULL,NULL
"Хорошёвское ш, дом 38","Хорошёвское ш, дом 38",Москва,Россия,NULL,NULL,NULL,NULL
"Хорошёвское ш, дом 38А","Хорошёвское ш, дом 38А",Москва,Россия,NULL,NULL,NULL,NULL
"Хорошёвское ш, дом 38Б","Хорошёвское ш, дом 38Б",Москва,Россия,NULL,NULL,NULL,NULL
"Хорошёвское ш, дом 38В","Хорошёвское ш, дом 38В",Москва,Россия,NULL,NULL,NULL,NULL
"Хорошёвское ш, дом 38Г","Хорошёвское ш, дом 38Г",Москва,Россия,NULL,NULL,NULL,NULL
"Хорошёвское ш, дом 38Д","Хорошёвское ш, дом 38Д",Москва,Россия,NULL,NULL,NULL,NULL
"Хорошёвское ш, дом 76Б","Хорошёвское ш, дом 76Б",Москва,Россия,NULL,NULL,NULL,NULL
"Хорошёвское ш, дом 76""В""","Хорошёвское ш, дом 76""В""",Москва,Россия,NULL,NULL,NULL,NULL
"Хорошёвское ш, дом 17","Хорошевское шоссе, д.17",Москва,Россия,4,256,17,14102
"Хорошёвское ш, дом 24","Хорошевское шоссе, д.24",Москва,Россия,3,191,16,10563
"Хорошёвское ш, дом 78","Хорошевское шоссе, д.78",Москва,Россия,2,60,6,2985
"Хорошёвское ш, дом 82, к 10","Хорошевское шоссе, д.82, к.10",Москва,Россия,3,46,5,1814
"Хорошёвское ш, дом 90","Хорошевское шоссе, д.90",Москва,Россия,2,57,8,3811
"Хорошёвское ш, дом 58","Хорошевское шоссе, д.58",Москва,Россия,2,128,17,8161
"Хорошёвское ш, дом 32, к 2","Хорошевское шоссе, д.32, к.2",Москва,Россия,2,32,5,2066
"Хорошёвское ш, дом 5, к 1","Хорошевское шоссе, д.5, к.1",Москва,Россия,3,196,17,10890
"Хорошёвское ш, дом 1","Хорошевское шоссе, д.1",Москва,Россия,8,97,5,7212
"Хорошёвское ш, дом 19","Хорошевское шоссе, д.19",Москва,Россия,2,135,17,7391
"Хорошёвское ш, дом 60","Хорошевское шоссе, д.60",Москва,Россия,2,136,17,8648
"Хорошёвское ш, дом 48","Хорошевское шоссе, д.48",Москва,Россия,3,192,17,10524
"Хорошёвское ш, дом 82, к 7","Хорошевское шоссе, д.82, к.7",Москва,Россия,3,59,5,3938
"Хорошёвское ш, дом 22","Хорошевское шоссе, д.22",Москва,Россия,3,184,16,10158
"2-я Хуторская ул, дом 18, к 2","Хуторская 2-я ул., д.18, к.2",Москва,Россия,4,80,5,3413
"1-я Хуторская ул, дом 8, к 1","Хуторская 1-я ул., д.8, к.1",Москва,Россия,4,80,5,3555
"1-я Хуторская ул, дом 16/26, к 4","Хуторская 1-я ул., д.16/26, к.4",Москва,Россия,1,16,4,972
"1-я Хуторская ул, дом 16/26, к 6","Хуторская 1-я ул., д.16/26, к.6",Москва,Россия,3,40,5,3546
"2-я Хуторская ул, дом 6/14, к 2","Хуторская 2-я ул., д.6/14, к.2",Москва,Россия,4,60,5,2563
"2-я Хуторская ул, дом 19, к 2","Хуторская 2-я ул., д.19, к.2",Москва,Россия,1,50,10,2682
"1-я Хуторская ул, дом 10, к 2","Хуторская 1-я ул., д.10, к.2",Москва,Россия,2,20,5,1765
"1-я Хуторская ул, дом 16/26, к 1","Хуторская 1-я ул., д.16/26, к.1",Москва,Россия,2,24,4,1607
"2-я Хуторская ул, дом 18, к 1","Хуторская 2-я ул., д.18, к.1",Москва,Россия,1,72,9,2550
"2-я Хуторская ул, дом 20","Хуторская 2-я ул., д.20",Москва,Россия,1,72,9,2557
"2-я Хуторская ул, дом 9","Хуторская 2-я ул., д.9",Москва,Россия,2,20,5,1765
"1-я Хуторская ул, дом 8, к 3","Хуторская 1-я ул., д.8, к.3",Москва,Россия,2,94,5,2892
"1-я Хуторская ул, дом 4, к 1","Хуторская 1-я ул., д.4, к.1",Москва,Россия,2,40,5,1576
"1-я Хуторская ул, дом 5А","Хуторская 1-я ул., д.5А",Москва,Россия,4,33,5,2890
"1-я Хуторская ул, дом 5","Хуторская 1-я ул., д.5",Москва,Россия,3,60,5,2523
"1-я Хуторская ул, дом 16/26, к 3","Хуторская 1-я ул., д.16/26, к.3",Москва,Россия,3,39,5,3458
"1-я Хуторская ул, дом 8, к 2","Хуторская 1-я ул., д.8, к.2",Москва,Россия,2,91,5,2911
"2-я Хуторская ул, дом 19, к 1","Хуторская 2-я ул., д.19, к.1",Москва,Россия,2,39,5,1620
"2-я Хуторская ул, дом 27","Хуторская 2-я ул., д.27",Москва,Россия,6,215,9,10692
"1-я Хуторская ул, дом 2, к 3","Хуторская 1-я ул., д.2, к.3",Москва,Россия,3,30,5,2649
"2-я Хуторская ул, дом 6/14, к 1","Хуторская 2-я ул., д.6/14, к.1",Москва,Россия,1,72,9,2558
"1-я Хуторская ул, дом 16/26, к 2","Хуторская 1-я ул., д.16/26, к.2",Москва,Россия,2,32,4,2163
"1-я Хуторская ул, дом 16/26, к 5","Хуторская 1-я ул., д.16/26, к.5",Москва,Россия,1,15,4,967
"2-я Хуторская ул, дом 11","Хуторская 2-я ул., д.11",Москва,Россия,1,66,12,3231
"1-я Хуторская ул, дом 14","Хуторская 1-я ул., д.14",Москва,Россия,4,40,5,3546
"1-я Хуторская ул, дом 7","Хуторская 1-я ул., д.7",Москва,Россия,4,80,5,3507
"1-я Хуторская ул, дом 2, к 2","Хуторская 1-я ул., д.2, к.2",Москва,Россия,4,60,5,4265
"1-я Хуторская ул, дом 10, к 3","Хуторская 1-я ул., д.10, к.3",Москва,Россия,1,16,4,951
"1-я Хуторская ул, дом 2, к 1","Хуторская 1-я ул., д.2, к.1",Москва,Россия,4,56,5,4062
"2-я Хуторская ул, дом 6/14, к 3","Хуторская 2-я ул., д.6/14, к.3",Москва,Россия,1,71,9,2536
"2-я Хуторская ул, дом 22","Хуторская 2-я ул., д.22",Москва,Россия,3,60,5,2458
"1-й Хуторской пер, дом 4","Хуторской 1-й пер., д.4",Москва,Россия,2,20,5,1773
"1-й Хуторской пер, дом 2","Хуторской 1-й пер., д.2",Москва,Россия,1,98,14,4242
"2-й Хуторской пер, дом 4/13","Хуторской 2-й пер., д.4/13",Москва,Россия,3,59,5,4007
"Чапаевский пер, дом 5, к 2","Чапаевский пер., д.5, к.2",Москва,Россия,2,214,12,8776
"Чапаевский пер, дом 3","Чапаевский пер., д.3",Москва,Россия,13,986,57,161589
"Чапаевский пер, дом 5, к 1","Чапаевский пер., д.5, к.1",Москва,Россия,2,213,12,8737
"Чуксин туп, дом 4","Чуксин туп., д.4",Москва,Россия,3,40,5,2850
"Чуксин туп, дом 7","Чуксин туп., д.7",Москва,Россия,3,60,5,2571
"Чуксин туп, дом 5","Чуксин туп., д.5",Москва,Россия,4,80,5,3431
"Чуксин туп, дом 3","Чуксин туп., д.3",Москва,Россия,2,48,6,3191
"Чуксин туп, дом 2","Чуксин туп., д.2",Москва,Россия,4,80,5,3544
"ул Юннатов, дом 15, к 1","Юннатов ул., д.15, к.1",Москва,Россия,3,60,5,2533
"ул Юннатов, дом 17, к 3","Юннатов ул., д.17, к.3",Москва,Россия,2,40,5,2688
"ул Юннатов, дом 17, к 4","Юннатов ул., д.17, к.4",Москва,Россия,3,60,5,3990
"ул Юннатов, дом 6, к 2","Юннатов ул., д.6, к.2",Москва,Россия,1,17,5,1006
"ул Юннатов, дом 14А","Юннатов ул., д.14А",Москва,Россия,2,40,5,1567
"ул Юннатов, дом 14","Юннатов ул., д.14",Москва,Россия,2,178,12,7102
"ул Юннатов, дом 8А","Юннатов ул., д.8А",Москва,Россия,4,60,5,3232
"ул Юннатов, дом 6, к 1","Юннатов ул., д.6, к.1",Москва,Россия,3,50,5,3475
"ул Юннатов, дом 15, к 2","Юннатов ул., д.15, к.2",Москва,Россия,3,60,5,2493
"ул Юннатов, дом 17, к 2","Юннатов ул., д.17, к.2",Москва,Россия,3,52,5,3477
"ул Юннатов, дом 17, к 1","Юннатов ул., д.17, к.1",Москва,Россия,3,58,5,3911
"ул Юннатов, дом 7","Юннатов ул., д.7",Москва,Россия,4,64,5,4486
"1-я ул Ямского Поля, дом 24","Ямского Поля 1-я ул., д.24",Москва,Россия,4,121,7,8461
"3-я ул Ямского Поля, дом 17","Ямского Поля 3-я ул., д.17",Москва,Россия,2,94,12,5451
"3-я ул Ямского Поля, дом 13","Ямского Поля 3-я ул., д.13",Москва,Россия,1,2,3,498
"5-я ул Ямского Поля, дом 27","Ямского Поля 5-я ул., д.27",Москва,Россия,1,105,16,4988
"5-я ул Ямского Поля, дом 23/25","5-я ул Ямского Поля, дом 23/25",Москва,Россия,NULL,NULL,NULL,NULL
